{
"type": "FeatureCollection",
"name": "bike_stations",
"crs": { "type": "name", "properties": { "name": "urn:ogc:def:crs:OGC:1.3:CRS84" } },
"features": [
{ "type": "Feature", "properties": { "station_id": "Bains des Pâquis", "name": "Bains des Pâquis", "short_name": "", "lat": 46.2112069, "lon": 6.1526709, "address": "", "capacity": null, "region_id": "", "rental_methods": null, "has_kiosk": null, "history": [ ] }, "geometry": { "type": "Point", "coordinates": [ 6.1526709, 46.2112069 ] } },
{ "type": "Feature", "properties": { "station_id": "Genève Cornavin", "name": "Genève Cornavin", "short_name": "", "lat": 46.2093526, "lon": 6.1425051, "address": "", "capacity": null, "region_id": "", "rental_methods": null, "has_kiosk": null, "history": [ ] }, "geometry": { "type": "Point", "coordinates": [ 6.1425051, 46.2093526 ] } },
{ "type": "Feature", "properties": { "station_id": "Rue de la Confédération 2", "name": "Rue de la Confédération 2", "short_name": "", "lat": 46.2038067, "lon": 6.1433116, "address": "", "capacity": null, "region_id": "", "rental_methods": null, "has_kiosk": null, "history": [ ] }, "geometry": { "type": "Point", "coordinates": [ 6.1433116, 46.2038067 ] } },
{ "type": "Feature", "properties": { "station_id": "Pont Mont Blanc S", "name": "Pont Mont Blanc S", "short_name": "", "lat": 46.2041793, "lon": 6.149528, "address": "", "capacity": null, "region_id": "", "rental_methods": null, "has_kiosk": null, "history": [ ] }, "geometry": { "type": "Point", "coordinates": [ 6.149528, 46.2041793 ] } },
{ "type": "Feature", "properties": { "station_id": "Rhône Quai général Guisan", "name": "Rhône Quai général Guisan", "short_name": "", "lat": 46.2046831, "lon": 6.147013, "address": "", "capacity": null, "region_id": "", "rental_methods": null, "has_kiosk": null, "history": [ ] }, "geometry": { "type": "Point", "coordinates": [ 6.147013, 46.2046831 ] } },
{ "type": "Feature", "properties": { "station_id": "Place St-Gervais", "name": "Place St-Gervais", "short_name": "", "lat": 46.2057147, "lon": 6.1427931, "address": "", "capacity": null, "region_id": "", "rental_methods": null, "has_kiosk": null, "history": [ ] }, "geometry": { "type": "Point", "coordinates": [ 6.1427931, 46.2057147 ] } },
{ "type": "Feature", "properties": { "station_id": "Rue de la Navigation", "name": "Rue de la Navigation", "short_name": "", "lat": 46.2115266, "lon": 6.1495787, "address": "", "capacity": null, "region_id": "", "rental_methods": null, "has_kiosk": null, "history": [ ] }, "geometry": { "type": "Point", "coordinates": [ 6.1495787, 46.2115266 ] } },
{ "type": "Feature", "properties": { "station_id": "Rive", "name": "Rive", "short_name": "", "lat": 46.2014375, "lon": 6.1530625, "address": "", "capacity": null, "region_id": "", "rental_methods": null, "has_kiosk": null, "history": [ ] }, "geometry": { "type": "Point", "coordinates": [ 6.1530625, 46.2014375 ] } },
{ "type": "Feature", "properties": { "station_id": "Leschot", "name": "Leschot", "short_name": "", "lat": 46.1965365, "lon": 6.1432303, "address": "", "capacity": null, "region_id": "", "rental_methods": null, "has_kiosk": null, "history": [ ] }, "geometry": { "type": "Point", "coordinates": [ 6.1432303, 46.1965365 ] } },
{ "type": "Feature", "properties": { "station_id": "Rue du Nant 12", "name": "Rue du Nant 12", "short_name": "", "lat": 46.2023981, "lon": 6.1607241, "address": "", "capacity": null, "region_id": "", "rental_methods": null, "has_kiosk": null, "history": [ ] }, "geometry": { "type": "Point", "coordinates": [ 6.1607241, 46.2023981 ] } },
{ "type": "Feature", "properties": { "station_id": "31 Décembre 6", "name": "31 Décembre 6", "short_name": "", "lat": 46.2053158, "lon": 6.1578497, "address": "", "capacity": null, "region_id": "", "rental_methods": null, "has_kiosk": null, "history": [ ] }, "geometry": { "type": "Point", "coordinates": [ 6.1578497, 46.2053158 ] } },
{ "type": "Feature", "properties": { "station_id": "Rond-Point de Rive", "name": "Rond-Point de Rive", "short_name": "", "lat": 46.2016212, "lon": 6.1538102, "address": "", "capacity": null, "region_id": "", "rental_methods": null, "has_kiosk": null, "history": [ ] }, "geometry": { "type": "Point", "coordinates": [ 6.1538102, 46.2016212 ] } },
{ "type": "Feature", "properties": { "station_id": "Place de la Fusterie", "name": "Place de la Fusterie", "short_name": "", "lat": 46.2041587, "lon": 6.1460944, "address": "", "capacity": null, "region_id": "", "rental_methods": null, "has_kiosk": null, "history": [ ] }, "geometry": { "type": "Point", "coordinates": [ 6.1460944, 46.2041587 ] } },
{ "type": "Feature", "properties": { "station_id": "Place du Cirque", "name": "Place du Cirque", "short_name": "", "lat": 46.2011859, "lon": 6.1398463, "address": "", "capacity": null, "region_id": "", "rental_methods": null, "has_kiosk": null, "history": [ ] }, "geometry": { "type": "Point", "coordinates": [ 6.1398463, 46.2011859 ] } },
{ "type": "Feature", "properties": { "station_id": "Terrassières", "name": "Terrassières", "short_name": "", "lat": 46.2012952, "lon": 6.1558235, "address": "", "capacity": null, "region_id": "", "rental_methods": null, "has_kiosk": null, "history": [ ] }, "geometry": { "type": "Point", "coordinates": [ 6.1558235, 46.2012952 ] } },
{ "type": "Feature", "properties": { "station_id": "Chaponnière", "name": "Chaponnière", "short_name": "", "lat": 46.2089975, "lon": 6.1443209, "address": "", "capacity": null, "region_id": "", "rental_methods": null, "has_kiosk": null, "history": [ ] }, "geometry": { "type": "Point", "coordinates": [ 6.1443209, 46.2089975 ] } },
{ "type": "Feature", "properties": { "station_id": "Place des Eaux-Vives", "name": "Place des Eaux-Vives", "short_name": "", "lat": 46.2023076, "lon": 6.1563643, "address": "", "capacity": null, "region_id": "", "rental_methods": null, "has_kiosk": null, "history": [ ] }, "geometry": { "type": "Point", "coordinates": [ 6.1563643, 46.2023076 ] } },
{ "type": "Feature", "properties": { "station_id": "Pont de la Machine", "name": "Pont de la Machine", "short_name": "", "lat": 46.2064075, "lon": 6.1447417, "address": "", "capacity": null, "region_id": "", "rental_methods": null, "has_kiosk": null, "history": [ ] }, "geometry": { "type": "Point", "coordinates": [ 6.1447417, 46.2064075 ] } },
{ "type": "Feature", "properties": { "station_id": "Eaux-Vives 2000", "name": "Eaux-Vives 2000", "short_name": "", "lat": 46.2004779, "lon": 6.1594871, "address": "", "capacity": null, "region_id": "", "rental_methods": null, "has_kiosk": null, "history": [ ] }, "geometry": { "type": "Point", "coordinates": [ 6.1594871, 46.2004779 ] } },
{ "type": "Feature", "properties": { "station_id": "Fribourg 2", "name": "Fribourg 2", "short_name": "", "lat": 46.2102549, "lon": 6.1449087, "address": "", "capacity": null, "region_id": "", "rental_methods": null, "has_kiosk": null, "history": [ ] }, "geometry": { "type": "Point", "coordinates": [ 6.1449087, 46.2102549 ] } },
{ "type": "Feature", "properties": { "station_id": "Plantamour 22", "name": "Plantamour 22", "short_name": "", "lat": 46.2104074, "lon": 6.1498047, "address": "", "capacity": null, "region_id": "", "rental_methods": null, "has_kiosk": null, "history": [ ] }, "geometry": { "type": "Point", "coordinates": [ 6.1498047, 46.2104074 ] } },
{ "type": "Feature", "properties": { "station_id": "Jardin des Alpes", "name": "Jardin des Alpes", "short_name": "", "lat": 46.2080078, "lon": 6.1488421, "address": "", "capacity": null, "region_id": "", "rental_methods": null, "has_kiosk": null, "history": [ ] }, "geometry": { "type": "Point", "coordinates": [ 6.1488421, 46.2080078 ] } },
{ "type": "Feature", "properties": { "station_id": "Plainpalais", "name": "Plainpalais", "short_name": "", "lat": 46.1995996, "lon": 6.141155, "address": "", "capacity": null, "region_id": "", "rental_methods": null, "has_kiosk": null, "history": [ ] }, "geometry": { "type": "Point", "coordinates": [ 6.141155, 46.1995996 ] } },
{ "type": "Feature", "properties": { "station_id": "Rue du Prince", "name": "Rue du Prince", "short_name": "", "lat": 46.2031806, "lon": 6.1514251, "address": "", "capacity": null, "region_id": "", "rental_methods": null, "has_kiosk": null, "history": [ ] }, "geometry": { "type": "Point", "coordinates": [ 6.1514251, 46.2031806 ] } },
{ "type": "Feature", "properties": { "station_id": "Rue de Carouge 3", "name": "Rue de Carouge 3", "short_name": "", "lat": 46.1972413, "lon": 6.1431529, "address": "", "capacity": null, "region_id": "", "rental_methods": null, "has_kiosk": null, "history": [ ] }, "geometry": { "type": "Point", "coordinates": [ 6.1431529, 46.1972413 ] } },
{ "type": "Feature", "properties": { "station_id": "Philosophes", "name": "Philosophes", "short_name": "", "lat": 46.1969609, "lon": 6.1452873, "address": "", "capacity": null, "region_id": "", "rental_methods": null, "has_kiosk": null, "history": [ ] }, "geometry": { "type": "Point", "coordinates": [ 6.1452873, 46.1969609 ] } },
{ "type": "Feature", "properties": { "station_id": "Uni Dufour", "name": "Uni Dufour", "short_name": "", "lat": 46.1996601, "lon": 6.1429661, "address": "", "capacity": null, "region_id": "", "rental_methods": null, "has_kiosk": null, "history": [ ] }, "geometry": { "type": "Point", "coordinates": [ 6.1429661, 46.1996601 ] } },
{ "type": "Feature", "properties": { "station_id": "Rue d'Italie", "name": "Rue d'Italie", "short_name": "", "lat": 46.2027213, "lon": 6.1525064, "address": "", "capacity": null, "region_id": "", "rental_methods": null, "has_kiosk": null, "history": [ ] }, "geometry": { "type": "Point", "coordinates": [ 6.1525064, 46.2027213 ] } },
{ "type": "Feature", "properties": { "station_id": "Hôpital 3 (hub mob)", "name": "Hôpital 3 (hub mob)", "short_name": "", "lat": 46.1948567, "lon": 6.1487596, "address": "", "capacity": null, "region_id": "", "rental_methods": null, "has_kiosk": null, "history": [ ] }, "geometry": { "type": "Point", "coordinates": [ 6.1487596, 46.1948567 ] } },
{ "type": "Feature", "properties": { "station_id": "Rue des Rois", "name": "Rue des Rois", "short_name": "", "lat": 46.2031888, "lon": 6.1377357, "address": "", "capacity": null, "region_id": "", "rental_methods": null, "has_kiosk": null, "history": [ ] }, "geometry": { "type": "Point", "coordinates": [ 6.1377357, 46.2031888 ] } },
{ "type": "Feature", "properties": { "station_id": "Hôpital 2", "name": "Hôpital 2", "short_name": "", "lat": 46.1941134, "lon": 6.1484971, "address": "", "capacity": null, "region_id": "", "rental_methods": null, "has_kiosk": null, "history": [ ] }, "geometry": { "type": "Point", "coordinates": [ 6.1484971, 46.1941134 ] } },
{ "type": "Feature", "properties": { "station_id": "Rue des Alpes", "name": "Rue des Alpes", "short_name": "", "lat": 46.209689, "lon": 6.1457237, "address": "", "capacity": null, "region_id": "", "rental_methods": null, "has_kiosk": null, "history": [ ] }, "geometry": { "type": "Point", "coordinates": [ 6.1457237, 46.209689 ] } },
{ "type": "Feature", "properties": { "station_id": "Pont du Mont-Blanc", "name": "Pont du Mont-Blanc", "short_name": "", "lat": 46.2069193, "lon": 6.1473036, "address": "", "capacity": null, "region_id": "", "rental_methods": null, "has_kiosk": null, "history": [ ] }, "geometry": { "type": "Point", "coordinates": [ 6.1473036, 46.2069193 ] } },
{ "type": "Feature", "properties": { "station_id": "Rue du Rhône 54", "name": "Rue du Rhône 54", "short_name": "", "lat": 46.2040222, "lon": 6.1481548, "address": "", "capacity": null, "region_id": "", "rental_methods": null, "has_kiosk": null, "history": [ ] }, "geometry": { "type": "Point", "coordinates": [ 6.1481548, 46.2040222 ] } },
{ "type": "Feature", "properties": { "station_id": "Rue de la Madeleine", "name": "Rue de la Madeleine", "short_name": "", "lat": 46.2023685, "lon": 6.1473478, "address": "", "capacity": null, "region_id": "", "rental_methods": null, "has_kiosk": null, "history": [ ] }, "geometry": { "type": "Point", "coordinates": [ 6.1473478, 46.2023685 ] } },
{ "type": "Feature", "properties": { "station_id": "Pictet de Rochemont 7", "name": "Pictet de Rochemont 7", "short_name": "", "lat": 46.2023365, "lon": 6.1576766, "address": "", "capacity": null, "region_id": "", "rental_methods": null, "has_kiosk": null, "history": [ ] }, "geometry": { "type": "Point", "coordinates": [ 6.1576766, 46.2023365 ] } },
{ "type": "Feature", "properties": { "station_id": "Bourg de Four", "name": "Bourg de Four", "short_name": "", "lat": 46.2000917, "lon": 6.1484456, "address": "", "capacity": null, "region_id": "", "rental_methods": null, "has_kiosk": null, "history": [ ] }, "geometry": { "type": "Point", "coordinates": [ 6.1484456, 46.2000917 ] } },
{ "type": "Feature", "properties": { "station_id": "Quai des Forces-Motrices", "name": "Quai des Forces-Motrices", "short_name": "", "lat": 46.2041899, "lon": 6.139265, "address": "", "capacity": null, "region_id": "", "rental_methods": null, "has_kiosk": null, "history": [ ] }, "geometry": { "type": "Point", "coordinates": [ 6.139265, 46.2041899 ] } },
{ "type": "Feature", "properties": { "station_id": "Robert-Céard 10", "name": "Robert-Céard 10", "short_name": "", "lat": 46.2032448, "lon": 6.1488988, "address": "", "capacity": null, "region_id": "", "rental_methods": null, "has_kiosk": null, "history": [ ] }, "geometry": { "type": "Point", "coordinates": [ 6.1488988, 46.2032448 ] } },
{ "type": "Feature", "properties": { "station_id": "Beth-Yaacov", "name": "Beth-Yaacov", "short_name": "", "lat": 46.2028401, "lon": 6.1414002, "address": "", "capacity": null, "region_id": "", "rental_methods": null, "has_kiosk": null, "history": [ ] }, "geometry": { "type": "Point", "coordinates": [ 6.1414002, 46.2028401 ] } },
{ "type": "Feature", "properties": { "station_id": "Vollandes 16", "name": "Vollandes 16", "short_name": "", "lat": 46.205223, "lon": 6.1602549, "address": "", "capacity": null, "region_id": "", "rental_methods": null, "has_kiosk": null, "history": [ ] }, "geometry": { "type": "Point", "coordinates": [ 6.1602549, 46.205223 ] } },
{ "type": "Feature", "properties": { "station_id": "Cherbuliez", "name": "Cherbuliez", "short_name": "", "lat": 46.2035996, "lon": 6.1586265, "address": "", "capacity": null, "region_id": "", "rental_methods": null, "has_kiosk": null, "history": [ ] }, "geometry": { "type": "Point", "coordinates": [ 6.1586265, 46.2035996 ] } },
{ "type": "Feature", "properties": { "station_id": "Place Camoletti", "name": "Place Camoletti", "short_name": "", "lat": 46.2031314, "lon": 6.1555808, "address": "", "capacity": null, "region_id": "", "rental_methods": null, "has_kiosk": null, "history": [ ] }, "geometry": { "type": "Point", "coordinates": [ 6.1555808, 46.2031314 ] } },
{ "type": "Feature", "properties": { "station_id": "Rue de Berne 36", "name": "Rue de Berne 36", "short_name": "", "lat": 46.2111603, "lon": 6.1466122, "address": "", "capacity": null, "region_id": "", "rental_methods": null, "has_kiosk": null, "history": [ ] }, "geometry": { "type": "Point", "coordinates": [ 6.1466122, 46.2111603 ] } },
{ "type": "Feature", "properties": { "station_id": "Pont des Bergues", "name": "Pont des Bergues", "short_name": "", "lat": 46.2067751, "lon": 6.1464734, "address": "", "capacity": null, "region_id": "", "rental_methods": null, "has_kiosk": null, "history": [ ] }, "geometry": { "type": "Point", "coordinates": [ 6.1464734, 46.2067751 ] } },
{ "type": "Feature", "properties": { "station_id": "Saint-Georges 60", "name": "Saint-Georges 60", "short_name": "", "lat": 46.2013132, "lon": 6.1372219, "address": "", "capacity": null, "region_id": "", "rental_methods": null, "has_kiosk": null, "history": [ ] }, "geometry": { "type": "Point", "coordinates": [ 6.1372219, 46.2013132 ] } },
{ "type": "Feature", "properties": { "station_id": "Verdaine 6", "name": "Verdaine 6", "short_name": "", "lat": 46.2016987, "lon": 6.1506667, "address": "", "capacity": null, "region_id": "", "rental_methods": null, "has_kiosk": null, "history": [ ] }, "geometry": { "type": "Point", "coordinates": [ 6.1506667, 46.2016987 ] } },
{ "type": "Feature", "properties": { "station_id": "Av. De la Grenade 11", "name": "Av. De la Grenade 11", "short_name": "", "lat": 46.2057451, "lon": 6.1607702, "address": "", "capacity": null, "region_id": "", "rental_methods": null, "has_kiosk": null, "history": [ ] }, "geometry": { "type": "Point", "coordinates": [ 6.1607702, 46.2057451 ] } },
{ "type": "Feature", "properties": { "station_id": "Place de Neuve", "name": "Place de Neuve", "short_name": "", "lat": 46.2017625, "lon": 6.1438301, "address": "", "capacity": null, "region_id": "", "rental_methods": null, "has_kiosk": null, "history": [ ] }, "geometry": { "type": "Point", "coordinates": [ 6.1438301, 46.2017625 ] } },
{ "type": "Feature", "properties": { "station_id": "Sablons", "name": "Sablons", "short_name": "", "lat": 46.2008162, "lon": 6.1376221, "address": "", "capacity": null, "region_id": "", "rental_methods": null, "has_kiosk": null, "history": [ ] }, "geometry": { "type": "Point", "coordinates": [ 6.1376221, 46.2008162 ] } },
{ "type": "Feature", "properties": { "station_id": "Bonivard", "name": "Bonivard", "short_name": "", "lat": 46.2077679, "lon": 6.1465002, "address": "", "capacity": null, "region_id": "", "rental_methods": null, "has_kiosk": null, "history": [ ] }, "geometry": { "type": "Point", "coordinates": [ 6.1465002, 46.2077679 ] } },
{ "type": "Feature", "properties": { "station_id": "Montchoisy 33", "name": "Montchoisy 33", "short_name": "", "lat": 46.2041465, "lon": 6.1617559, "address": "", "capacity": null, "region_id": "", "rental_methods": null, "has_kiosk": null, "history": [ ] }, "geometry": { "type": "Point", "coordinates": [ 6.1617559, 46.2041465 ] } },
{ "type": "Feature", "properties": { "station_id": "Pierre-Fatio", "name": "Pierre-Fatio", "short_name": "", "lat": 46.2029882, "lon": 6.1541791, "address": "", "capacity": null, "region_id": "", "rental_methods": null, "has_kiosk": null, "history": [ ] }, "geometry": { "type": "Point", "coordinates": [ 6.1541791, 46.2029882 ] } },
{ "type": "Feature", "properties": { "station_id": "Saint-Léger 14", "name": "Saint-Léger 14", "short_name": "", "lat": 46.1986323, "lon": 6.147423, "address": "", "capacity": null, "region_id": "", "rental_methods": null, "has_kiosk": null, "history": [ ] }, "geometry": { "type": "Point", "coordinates": [ 6.147423, 46.1986323 ] } },
{ "type": "Feature", "properties": { "station_id": "Rousseau 5", "name": "Rousseau 5", "short_name": "", "lat": 46.2068767, "lon": 6.1441195, "address": "", "capacity": null, "region_id": "", "rental_methods": null, "has_kiosk": null, "history": [ ] }, "geometry": { "type": "Point", "coordinates": [ 6.1441195, 46.2068767 ] } },
{ "type": "Feature", "properties": { "station_id": "Uni Bastions", "name": "Uni Bastions", "short_name": "", "lat": 46.1987529, "lon": 6.1441602, "address": "", "capacity": null, "region_id": "", "rental_methods": null, "has_kiosk": null, "history": [ ] }, "geometry": { "type": "Point", "coordinates": [ 6.1441602, 46.1987529 ] } },
{ "type": "Feature", "properties": { "station_id": "Rue Du-Roveray 9", "name": "Rue Du-Roveray 9", "short_name": "", "lat": 46.2051736, "lon": 6.1591623, "address": "", "capacity": null, "region_id": "", "rental_methods": null, "has_kiosk": null, "history": [ ] }, "geometry": { "type": "Point", "coordinates": [ 6.1591623, 46.2051736 ] } },
{ "type": "Feature", "properties": { "station_id": "Berne 2", "name": "Berne 2", "short_name": "", "lat": 46.2087736, "lon": 6.1447897, "address": "", "capacity": null, "region_id": "", "rental_methods": null, "has_kiosk": null, "history": [ ] }, "geometry": { "type": "Point", "coordinates": [ 6.1447897, 46.2087736 ] } },
{ "type": "Feature", "properties": { "station_id": "Basilique Notre Dame", "name": "Basilique Notre Dame", "short_name": "", "lat": 46.2085539, "lon": 6.1424073, "address": "", "capacity": null, "region_id": "", "rental_methods": null, "has_kiosk": null, "history": [ ] }, "geometry": { "type": "Point", "coordinates": [ 6.1424073, 46.2085539 ] } },
{ "type": "Feature", "properties": { "station_id": "Rue de l'Arquebuse", "name": "Rue de l'Arquebuse", "short_name": "", "lat": 46.2016516, "lon": 6.139445, "address": "", "capacity": null, "region_id": "", "rental_methods": null, "has_kiosk": null, "history": [ ] }, "geometry": { "type": "Point", "coordinates": [ 6.139445, 46.2016516 ] } },
{ "type": "Feature", "properties": { "station_id": "Muzy 7", "name": "Muzy 7", "short_name": "", "lat": 46.2039075, "lon": 6.15607, "address": "", "capacity": null, "region_id": "", "rental_methods": null, "has_kiosk": null, "history": [ ] }, "geometry": { "type": "Point", "coordinates": [ 6.15607, 46.2039075 ] } },
{ "type": "Feature", "properties": { "station_id": "HEAD", "name": "HEAD", "short_name": "", "lat": 46.2087165, "lon": 6.1412041, "address": "", "capacity": null, "region_id": "", "rental_methods": null, "has_kiosk": null, "history": [ ] }, "geometry": { "type": "Point", "coordinates": [ 6.1412041, 46.2087165 ] } },
{ "type": "Feature", "properties": { "station_id": "Chemin Malombré", "name": "Chemin Malombré", "short_name": "", "lat": 46.1949789, "lon": 6.1516402, "address": "", "capacity": null, "region_id": "", "rental_methods": null, "has_kiosk": null, "history": [ ] }, "geometry": { "type": "Point", "coordinates": [ 6.1516402, 46.1949789 ] } },
{ "type": "Feature", "properties": { "station_id": "Place de Grenus", "name": "Place de Grenus", "short_name": "", "lat": 46.2069752, "lon": 6.1428894, "address": "", "capacity": null, "region_id": "", "rental_methods": null, "has_kiosk": null, "history": [ ] }, "geometry": { "type": "Point", "coordinates": [ 6.1428894, 46.2069752 ] } },
{ "type": "Feature", "properties": { "station_id": "Rue Sillem", "name": "Rue Sillem", "short_name": "", "lat": 46.2053963, "lon": 6.1625304, "address": "", "capacity": null, "region_id": "", "rental_methods": null, "has_kiosk": null, "history": [ ] }, "geometry": { "type": "Point", "coordinates": [ 6.1625304, 46.2053963 ] } },
{ "type": "Feature", "properties": { "station_id": "Gare Cornavin gallerie", "name": "Gare Cornavin gallerie", "short_name": "", "lat": 46.209146, "lon": 6.1404056, "address": "", "capacity": null, "region_id": "", "rental_methods": null, "has_kiosk": null, "history": [ ] }, "geometry": { "type": "Point", "coordinates": [ 6.1404056, 46.209146 ] } },
{ "type": "Feature", "properties": { "station_id": "My Little Room", "name": "My Little Room", "short_name": "", "lat": 46.2022268, "lon": 6.1592887, "address": "", "capacity": null, "region_id": "", "rental_methods": null, "has_kiosk": null, "history": [ ] }, "geometry": { "type": "Point", "coordinates": [ 6.1592887, 46.2022268 ] } },
{ "type": "Feature", "properties": { "station_id": "Coulouvrenière", "name": "Coulouvrenière", "short_name": "", "lat": 46.2038939, "lon": 6.1380224, "address": "", "capacity": null, "region_id": "", "rental_methods": null, "has_kiosk": null, "history": [ ] }, "geometry": { "type": "Point", "coordinates": [ 6.1380224, 46.2038939 ] } },
{ "type": "Feature", "properties": { "station_id": "Jungle Pop", "name": "Jungle Pop", "short_name": "", "lat": 46.2000422, "lon": 6.1619803, "address": "", "capacity": null, "region_id": "", "rental_methods": null, "has_kiosk": null, "history": [ ] }, "geometry": { "type": "Point", "coordinates": [ 6.1619803, 46.2000422 ] } },
{ "type": "Feature", "properties": { "station_id": "Montchoisy 8", "name": "Montchoisy 8", "short_name": "", "lat": 46.2027891, "lon": 6.1594761, "address": "", "capacity": null, "region_id": "", "rental_methods": null, "has_kiosk": null, "history": [ ] }, "geometry": { "type": "Point", "coordinates": [ 6.1594761, 46.2027891 ] } },
{ "type": "Feature", "properties": { "station_id": "Merle-d'Aubigné 5", "name": "Merle-d'Aubigné 5", "short_name": "", "lat": 46.2065734, "lon": 6.1617932, "address": "", "capacity": null, "region_id": "", "rental_methods": null, "has_kiosk": null, "history": [ ] }, "geometry": { "type": "Point", "coordinates": [ 6.1617932, 46.2065734 ] } },
{ "type": "Feature", "properties": { "station_id": "Montchoisy 21", "name": "Montchoisy 21", "short_name": "", "lat": 46.2036159, "lon": 6.1608192, "address": "", "capacity": null, "region_id": "", "rental_methods": null, "has_kiosk": null, "history": [ ] }, "geometry": { "type": "Point", "coordinates": [ 6.1608192, 46.2036159 ] } },
{ "type": "Feature", "properties": { "station_id": "Rue Thalberg 8", "name": "Rue Thalberg 8", "short_name": "", "lat": 46.2096233, "lon": 6.1467867, "address": "", "capacity": null, "region_id": "", "rental_methods": null, "has_kiosk": null, "history": [ ] }, "geometry": { "type": "Point", "coordinates": [ 6.1467867, 46.2096233 ] } },
{ "type": "Feature", "properties": { "station_id": "Gare Routière", "name": "Gare Routière", "short_name": "", "lat": 46.2084035, "lon": 6.1463984, "address": "", "capacity": null, "region_id": "", "rental_methods": null, "has_kiosk": null, "history": [ ] }, "geometry": { "type": "Point", "coordinates": [ 6.1463984, 46.2084035 ] } },
{ "type": "Feature", "properties": { "station_id": "Rue Barton", "name": "Rue Barton", "short_name": "", "lat": 46.2107688, "lon": 6.1510593, "address": "", "capacity": null, "region_id": "", "rental_methods": null, "has_kiosk": null, "history": [ ] }, "geometry": { "type": "Point", "coordinates": [ 6.1510593, 46.2107688 ] } },
{ "type": "Feature", "properties": { "station_id": "Rue de L'Ecole-de-Chimie", "name": "Rue de L'Ecole-de-Chimie", "short_name": "", "lat": 46.1965564, "lon": 6.1466746, "address": "", "capacity": null, "region_id": "", "rental_methods": null, "has_kiosk": null, "history": [ ] }, "geometry": { "type": "Point", "coordinates": [ 6.1466746, 46.1965564 ] } },
{ "type": "Feature", "properties": { "station_id": "Rue de Contamines", "name": "Rue de Contamines", "short_name": "", "lat": 46.1955643, "lon": 6.1555544, "address": "", "capacity": null, "region_id": "", "rental_methods": null, "has_kiosk": null, "history": [ ] }, "geometry": { "type": "Point", "coordinates": [ 6.1555544, 46.1955643 ] } },
{ "type": "Feature", "properties": { "station_id": "Rue Henri-Blanvalet", "name": "Rue Henri-Blanvalet", "short_name": "", "lat": 46.2032123, "lon": 6.1587204, "address": "", "capacity": null, "region_id": "", "rental_methods": null, "has_kiosk": null, "history": [ ] }, "geometry": { "type": "Point", "coordinates": [ 6.1587204, 46.2032123 ] } },
{ "type": "Feature", "properties": { "station_id": "La Turbine", "name": "La Turbine", "short_name": "", "lat": 46.2039152, "lon": 6.1369485, "address": "", "capacity": null, "region_id": "", "rental_methods": null, "has_kiosk": null, "history": [ ] }, "geometry": { "type": "Point", "coordinates": [ 6.1369485, 46.2039152 ] } },
{ "type": "Feature", "properties": { "station_id": "Terreaux-du-Temple", "name": "Terreaux-du-Temple", "short_name": "", "lat": 46.2072477, "lon": 6.1412344, "address": "", "capacity": null, "region_id": "", "rental_methods": null, "has_kiosk": null, "history": [ ] }, "geometry": { "type": "Point", "coordinates": [ 6.1412344, 46.2072477 ] } },
{ "type": "Feature", "properties": { "station_id": "Le Shogun", "name": "Le Shogun", "short_name": "", "lat": 46.204237, "lon": 6.1589403, "address": "", "capacity": null, "region_id": "", "rental_methods": null, "has_kiosk": null, "history": [ ] }, "geometry": { "type": "Point", "coordinates": [ 6.1589403, 46.204237 ] } },
{ "type": "Feature", "properties": { "station_id": "Au Chien Bleu", "name": "Au Chien Bleu", "short_name": "", "lat": 46.1966174, "lon": 6.1442388, "address": "", "capacity": null, "region_id": "", "rental_methods": null, "has_kiosk": null, "history": [ ] }, "geometry": { "type": "Point", "coordinates": [ 6.1442388, 46.1966174 ] } },
{ "type": "Feature", "properties": { "station_id": "Rue Necker", "name": "Rue Necker", "short_name": "", "lat": 46.2076433, "lon": 6.1409662, "address": "", "capacity": null, "region_id": "", "rental_methods": null, "has_kiosk": null, "history": [ ] }, "geometry": { "type": "Point", "coordinates": [ 6.1409662, 46.2076433 ] } },
{ "type": "Feature", "properties": { "station_id": "François-Bartholoni", "name": "François-Bartholoni", "short_name": "", "lat": 46.200731, "lon": 6.1429667, "address": "", "capacity": null, "region_id": "", "rental_methods": null, "has_kiosk": null, "history": [ ] }, "geometry": { "type": "Point", "coordinates": [ 6.1429667, 46.200731 ] } },
{ "type": "Feature", "properties": { "station_id": "Rue des Savoises 3", "name": "Rue des Savoises 3", "short_name": "", "lat": 46.2007559, "lon": 6.1396609, "address": "", "capacity": null, "region_id": "", "rental_methods": null, "has_kiosk": null, "history": [ ] }, "geometry": { "type": "Point", "coordinates": [ 6.1396609, 46.2007559 ] } },
{ "type": "Feature", "properties": { "station_id": "Musée d'Art et Histoire", "name": "Musée d'Art et Histoire", "short_name": "", "lat": 46.199425, "lon": 6.1518549, "address": "", "capacity": null, "region_id": "", "rental_methods": null, "has_kiosk": null, "history": [ ] }, "geometry": { "type": "Point", "coordinates": [ 6.1518549, 46.199425 ] } },
{ "type": "Feature", "properties": { "station_id": "Malagnou", "name": "Malagnou", "short_name": "", "lat": 46.1977199, "lon": 6.1608216, "address": "", "capacity": null, "region_id": "", "rental_methods": null, "has_kiosk": null, "history": [ ] }, "geometry": { "type": "Point", "coordinates": [ 6.1608216, 46.1977199 ] } },
{ "type": "Feature", "properties": { "station_id": "Temple des Pâquis", "name": "Temple des Pâquis", "short_name": "", "lat": 46.2116452, "lon": 6.1472369, "address": "", "capacity": null, "region_id": "", "rental_methods": null, "has_kiosk": null, "history": [ ] }, "geometry": { "type": "Point", "coordinates": [ 6.1472369, 46.2116452 ] } },
{ "type": "Feature", "properties": { "station_id": "Grand théàtre", "name": "Grand théàtre", "short_name": "", "lat": 46.2018665, "lon": 6.143123, "address": "", "capacity": null, "region_id": "", "rental_methods": null, "has_kiosk": null, "history": [ ] }, "geometry": { "type": "Point", "coordinates": [ 6.143123, 46.2018665 ] } },
{ "type": "Feature", "properties": { "station_id": "Rue de l'Athénée", "name": "Rue de l'Athénée", "short_name": "", "lat": 46.195082, "lon": 6.1540845, "address": "", "capacity": null, "region_id": "", "rental_methods": null, "has_kiosk": null, "history": [ ] }, "geometry": { "type": "Point", "coordinates": [ 6.1540845, 46.195082 ] } },
{ "type": "Feature", "properties": { "station_id": "Gavroche", "name": "Gavroche", "short_name": "", "lat": 46.2060901, "lon": 6.1396961, "address": "", "capacity": null, "region_id": "", "rental_methods": null, "has_kiosk": null, "history": [ ] }, "geometry": { "type": "Point", "coordinates": [ 6.1396961, 46.2060901 ] } },
{ "type": "Feature", "properties": { "station_id": "Rue du Nant 27", "name": "Rue du Nant 27", "short_name": "", "lat": 46.2029819, "lon": 6.1618123, "address": "", "capacity": null, "region_id": "", "rental_methods": null, "has_kiosk": null, "history": [ ] }, "geometry": { "type": "Point", "coordinates": [ 6.1618123, 46.2029819 ] } },
{ "type": "Feature", "properties": { "station_id": "Boulevard du Théâtre", "name": "Boulevard du Théâtre", "short_name": "", "lat": 46.2025527, "lon": 6.1416152, "address": "", "capacity": null, "region_id": "", "rental_methods": null, "has_kiosk": null, "history": [ ] }, "geometry": { "type": "Point", "coordinates": [ 6.1416152, 46.2025527 ] } },
{ "type": "Feature", "properties": { "station_id": "Chaponnière 16", "name": "Chaponnière 16", "short_name": "", "lat": 46.209787, "lon": 6.1451953, "address": "", "capacity": null, "region_id": "", "rental_methods": null, "has_kiosk": null, "history": [ ] }, "geometry": { "type": "Point", "coordinates": [ 6.1451953, 46.209787 ] } },
{ "type": "Feature", "properties": { "station_id": "L'Aigle Noir", "name": "L'Aigle Noir", "short_name": "", "lat": 46.210525, "lon": 6.1470947, "address": "", "capacity": null, "region_id": "", "rental_methods": null, "has_kiosk": null, "history": [ ] }, "geometry": { "type": "Point", "coordinates": [ 6.1470947, 46.210525 ] } },
{ "type": "Feature", "properties": { "station_id": "Ferdinand-Hodler 17", "name": "Ferdinand-Hodler 17", "short_name": "", "lat": 46.1990404, "lon": 6.1555378, "address": "", "capacity": null, "region_id": "", "rental_methods": null, "has_kiosk": null, "history": [ ] }, "geometry": { "type": "Point", "coordinates": [ 6.1555378, 46.1990404 ] } },
{ "type": "Feature", "properties": { "station_id": "Jules-Crosnier 2", "name": "Jules-Crosnier 2", "short_name": "", "lat": 46.1966758, "lon": 6.1531468, "address": "", "capacity": null, "region_id": "", "rental_methods": null, "has_kiosk": null, "history": [ ] }, "geometry": { "type": "Point", "coordinates": [ 6.1531468, 46.1966758 ] } },
{ "type": "Feature", "properties": { "station_id": "Rue des Savoises 17", "name": "Rue des Savoises 17", "short_name": "", "lat": 46.2010616, "lon": 6.1385006, "address": "", "capacity": null, "region_id": "", "rental_methods": null, "has_kiosk": null, "history": [ ] }, "geometry": { "type": "Point", "coordinates": [ 6.1385006, 46.2010616 ] } },
{ "type": "Feature", "properties": { "station_id": "Le Socrate", "name": "Le Socrate", "short_name": "", "lat": 46.1957388, "lon": 6.1463225, "address": "", "capacity": null, "region_id": "", "rental_methods": null, "has_kiosk": null, "history": [ ] }, "geometry": { "type": "Point", "coordinates": [ 6.1463225, 46.1957388 ] } },
{ "type": "Feature", "properties": { "station_id": "Pécolat 8", "name": "Pécolat 8", "short_name": "", "lat": 46.208767, "lon": 6.14606, "address": "", "capacity": null, "region_id": "", "rental_methods": null, "has_kiosk": null, "history": [ ] }, "geometry": { "type": "Point", "coordinates": [ 6.14606, 46.208767 ] } },
{ "type": "Feature", "properties": { "station_id": "Rue Crespin", "name": "Rue Crespin", "short_name": "", "lat": 46.1953656, "lon": 6.1577756, "address": "", "capacity": null, "region_id": "", "rental_methods": null, "has_kiosk": null, "history": [ ] }, "geometry": { "type": "Point", "coordinates": [ 6.1577756, 46.1953656 ] } },
{ "type": "Feature", "properties": { "station_id": "Le Lyrique", "name": "Le Lyrique", "short_name": "", "lat": 46.201362, "lon": 6.1424538, "address": "", "capacity": null, "region_id": "", "rental_methods": null, "has_kiosk": null, "history": [ ] }, "geometry": { "type": "Point", "coordinates": [ 6.1424538, 46.201362 ] } },
{ "type": "Feature", "properties": { "station_id": "El Pueblo", "name": "El Pueblo", "short_name": "", "lat": 46.2072301, "lon": 6.1448973, "address": "", "capacity": null, "region_id": "", "rental_methods": null, "has_kiosk": null, "history": [ ] }, "geometry": { "type": "Point", "coordinates": [ 6.1448973, 46.2072301 ] } },
{ "type": "Feature", "properties": { "station_id": "Franz-Liszt", "name": "Franz-Liszt", "short_name": "", "lat": 46.1988497, "lon": 6.1494832, "address": "", "capacity": null, "region_id": "", "rental_methods": null, "has_kiosk": null, "history": [ ] }, "geometry": { "type": "Point", "coordinates": [ 6.1494832, 46.1988497 ] } },
{ "type": "Feature", "properties": { "station_id": "La Felicita", "name": "La Felicita", "short_name": "", "lat": 46.199845, "lon": 6.1624014, "address": "", "capacity": null, "region_id": "", "rental_methods": null, "has_kiosk": null, "history": [ ] }, "geometry": { "type": "Point", "coordinates": [ 6.1624014, 46.199845 ] } },
{ "type": "Feature", "properties": { "station_id": "Rue de Zurich 5", "name": "Rue de Zurich 5", "short_name": "", "lat": 46.2112231, "lon": 6.148367, "address": "", "capacity": null, "region_id": "", "rental_methods": null, "has_kiosk": null, "history": [ ] }, "geometry": { "type": "Point", "coordinates": [ 6.148367, 46.2112231 ] } },
{ "type": "Feature", "properties": { "station_id": "Lazy Cat", "name": "Lazy Cat", "short_name": "", "lat": 46.2027167, "lon": 6.1612906, "address": "", "capacity": null, "region_id": "", "rental_methods": null, "has_kiosk": null, "history": [ ] }, "geometry": { "type": "Point", "coordinates": [ 6.1612906, 46.2027167 ] } },
{ "type": "Feature", "properties": { "station_id": "Rue des Vollandes 69", "name": "Rue des Vollandes 69", "short_name": "", "lat": 46.2026661, "lon": 6.1630545, "address": "", "capacity": null, "region_id": "", "rental_methods": null, "has_kiosk": null, "history": [ ] }, "geometry": { "type": "Point", "coordinates": [ 6.1630545, 46.2026661 ] } },
{ "type": "Feature", "properties": { "station_id": "Malatrex", "name": "Malatrex", "short_name": "", "lat": 46.2082382, "lon": 6.1393971, "address": "", "capacity": null, "region_id": "", "rental_methods": null, "has_kiosk": null, "history": [ ] }, "geometry": { "type": "Point", "coordinates": [ 6.1393971, 46.2082382 ] } },
{ "type": "Feature", "properties": { "station_id": "Dufour 14", "name": "Dufour 14", "short_name": "", "lat": 46.201206, "lon": 6.1417383, "address": "", "capacity": null, "region_id": "", "rental_methods": null, "has_kiosk": null, "history": [ ] }, "geometry": { "type": "Point", "coordinates": [ 6.1417383, 46.201206 ] } },
{ "type": "Feature", "properties": { "station_id": "Rue Necker 1", "name": "Rue Necker 1", "short_name": "", "lat": 46.2068494, "lon": 6.1401026, "address": "", "capacity": null, "region_id": "", "rental_methods": null, "has_kiosk": null, "history": [ ] }, "geometry": { "type": "Point", "coordinates": [ 6.1401026, 46.2068494 ] } },
{ "type": "Feature", "properties": { "station_id": "Carosello", "name": "Carosello", "short_name": "", "lat": 46.2006217, "lon": 6.141049, "address": "", "capacity": null, "region_id": "", "rental_methods": null, "has_kiosk": null, "history": [ ] }, "geometry": { "type": "Point", "coordinates": [ 6.141049, 46.2006217 ] } },
{ "type": "Feature", "properties": { "station_id": "Rue Maunoir 42", "name": "Rue Maunoir 42", "short_name": "", "lat": 46.2023361, "lon": 6.1618559, "address": "", "capacity": null, "region_id": "", "rental_methods": null, "has_kiosk": null, "history": [ ] }, "geometry": { "type": "Point", "coordinates": [ 6.1618559, 46.2023361 ] } },
{ "type": "Feature", "properties": { "station_id": "Bartholoni 2", "name": "Bartholoni 2", "short_name": "", "lat": 46.2002036, "lon": 6.1414694, "address": "", "capacity": null, "region_id": "", "rental_methods": null, "has_kiosk": null, "history": [ ] }, "geometry": { "type": "Point", "coordinates": [ 6.1414694, 46.2002036 ] } },
{ "type": "Feature", "properties": { "station_id": "Saint-Jean 67", "name": "Saint-Jean 67", "short_name": "", "lat": 46.2064096, "lon": 6.1380201, "address": "", "capacity": null, "region_id": "", "rental_methods": null, "has_kiosk": null, "history": [ ] }, "geometry": { "type": "Point", "coordinates": [ 6.1380201, 46.2064096 ] } },
{ "type": "Feature", "properties": { "station_id": "Rue Monnier", "name": "Rue Monnier", "short_name": "", "lat": 46.1949379, "lon": 6.1528473, "address": "", "capacity": null, "region_id": "", "rental_methods": null, "has_kiosk": null, "history": [ ] }, "geometry": { "type": "Point", "coordinates": [ 6.1528473, 46.1949379 ] } },
{ "type": "Feature", "properties": { "station_id": "Turrettini 1", "name": "Turrettini 1", "short_name": "", "lat": 46.2054865, "lon": 6.141601, "address": "", "capacity": null, "region_id": "", "rental_methods": null, "has_kiosk": null, "history": [ ] }, "geometry": { "type": "Point", "coordinates": [ 6.141601, 46.2054865 ] } },
{ "type": "Feature", "properties": { "station_id": "Rue de l'Avenir 34", "name": "Rue de l'Avenir 34", "short_name": "", "lat": 46.2046266, "lon": 6.1622508, "address": "", "capacity": null, "region_id": "", "rental_methods": null, "has_kiosk": null, "history": [ ] }, "geometry": { "type": "Point", "coordinates": [ 6.1622508, 46.2046266 ] } },
{ "type": "Feature", "properties": { "station_id": "Rue Léon-Nicole", "name": "Rue Léon-Nicole", "short_name": "", "lat": 46.2117783, "lon": 6.1483385, "address": "", "capacity": null, "region_id": "", "rental_methods": null, "has_kiosk": null, "history": [ ] }, "geometry": { "type": "Point", "coordinates": [ 6.1483385, 46.2117783 ] } },
{ "type": "Feature", "properties": { "station_id": "Emile-Yung 1", "name": "Emile-Yung 1", "short_name": "", "lat": 46.196348, "lon": 6.1505205, "address": "", "capacity": null, "region_id": "", "rental_methods": null, "has_kiosk": null, "history": [ ] }, "geometry": { "type": "Point", "coordinates": [ 6.1505205, 46.196348 ] } },
{ "type": "Feature", "properties": { "station_id": "Rue des Photographe 14", "name": "Rue des Photographe 14", "short_name": "", "lat": 46.2026229, "lon": 6.1602472, "address": "", "capacity": null, "region_id": "", "rental_methods": null, "has_kiosk": null, "history": [ ] }, "geometry": { "type": "Point", "coordinates": [ 6.1602472, 46.2026229 ] } },
{ "type": "Feature", "properties": { "station_id": "Mont-de-Sion", "name": "Mont-de-Sion", "short_name": "", "lat": 46.1971196, "lon": 6.1530576, "address": "", "capacity": null, "region_id": "", "rental_methods": null, "has_kiosk": null, "history": [ ] }, "geometry": { "type": "Point", "coordinates": [ 6.1530576, 46.1971196 ] } },
{ "type": "Feature", "properties": { "station_id": "Gaspard-Vallette", "name": "Gaspard-Vallette", "short_name": "", "lat": 46.194587, "lon": 6.1560258, "address": "", "capacity": null, "region_id": "", "rental_methods": null, "has_kiosk": null, "history": [ ] }, "geometry": { "type": "Point", "coordinates": [ 6.1560258, 46.194587 ] } },
{ "type": "Feature", "properties": { "station_id": "Rue Galloix", "name": "Rue Galloix", "short_name": "", "lat": 46.1974452, "lon": 6.1462508, "address": "", "capacity": null, "region_id": "", "rental_methods": null, "has_kiosk": null, "history": [ ] }, "geometry": { "type": "Point", "coordinates": [ 6.1462508, 46.1974452 ] } },
{ "type": "Feature", "properties": { "station_id": "Jean-Sénebier 20", "name": "Jean-Sénebier 20", "short_name": "", "lat": 46.1967467, "lon": 6.1486306, "address": "", "capacity": null, "region_id": "", "rental_methods": null, "has_kiosk": null, "history": [ ] }, "geometry": { "type": "Point", "coordinates": [ 6.1486306, 46.1967467 ] } },
{ "type": "Feature", "properties": { "station_id": "Promenade du Pin", "name": "Promenade du Pin", "short_name": "", "lat": 46.198398, "lon": 6.1502622, "address": "", "capacity": null, "region_id": "", "rental_methods": null, "has_kiosk": null, "history": [ ] }, "geometry": { "type": "Point", "coordinates": [ 6.1502622, 46.198398 ] } },
{ "type": "Feature", "properties": { "station_id": "Café des Vignes", "name": "Café des Vignes", "short_name": "", "lat": 46.1960152, "lon": 6.1545398, "address": "", "capacity": null, "region_id": "", "rental_methods": null, "has_kiosk": null, "history": [ ] }, "geometry": { "type": "Point", "coordinates": [ 6.1545398, 46.1960152 ] } },
{ "type": "Feature", "properties": { "station_id": "Rue Sismondi", "name": "Rue Sismondi", "short_name": "", "lat": 46.2100823, "lon": 6.1472328, "address": "", "capacity": null, "region_id": "", "rental_methods": null, "has_kiosk": null, "history": [ ] }, "geometry": { "type": "Point", "coordinates": [ 6.1472328, 46.2100823 ] } },
{ "type": "Feature", "properties": { "station_id": "HUG Tour 8", "name": "HUG Tour 8", "short_name": "", "lat": 46.1959623, "lon": 6.1478557, "address": "", "capacity": null, "region_id": "", "rental_methods": null, "has_kiosk": null, "history": [ ] }, "geometry": { "type": "Point", "coordinates": [ 6.1478557, 46.1959623 ] } },
{ "type": "Feature", "properties": { "station_id": "Malombré 12", "name": "Malombré 12", "short_name": "", "lat": 46.1956787, "lon": 6.152047, "address": "", "capacity": null, "region_id": "", "rental_methods": null, "has_kiosk": null, "history": [ ] }, "geometry": { "type": "Point", "coordinates": [ 6.152047, 46.1956787 ] } },
{ "type": "Feature", "properties": { "station_id": "Léon-Gaud", "name": "Léon-Gaud", "short_name": "", "lat": 46.195166, "lon": 6.1560486, "address": "", "capacity": null, "region_id": "", "rental_methods": null, "has_kiosk": null, "history": [ ] }, "geometry": { "type": "Point", "coordinates": [ 6.1560486, 46.195166 ] } },
{ "type": "Feature", "properties": { "station_id": "Rue de Zurich 17", "name": "Rue de Zurich 17", "short_name": "", "lat": 46.2114083, "lon": 6.1477451, "address": "", "capacity": null, "region_id": "", "rental_methods": null, "has_kiosk": null, "history": [ ] }, "geometry": { "type": "Point", "coordinates": [ 6.1477451, 46.2114083 ] } },
{ "type": "Feature", "properties": { "station_id": "Cours des Bastions 10", "name": "Cours des Bastions 10", "short_name": "", "lat": 46.1977578, "lon": 6.1482805, "address": "", "capacity": null, "region_id": "", "rental_methods": null, "has_kiosk": null, "history": [ ] }, "geometry": { "type": "Point", "coordinates": [ 6.1482805, 46.1977578 ] } },
{ "type": "Feature", "properties": { "station_id": "Rue Firmin-Massot", "name": "Rue Firmin-Massot", "short_name": "", "lat": 46.1964928, "lon": 6.1512387, "address": "", "capacity": null, "region_id": "", "rental_methods": null, "has_kiosk": null, "history": [ ] }, "geometry": { "type": "Point", "coordinates": [ 6.1512387, 46.1964928 ] } },
{ "type": "Feature", "properties": { "station_id": "Jean-Sénebier", "name": "Jean-Sénebier", "short_name": "", "lat": 46.1979739, "lon": 6.1471238, "address": "", "capacity": null, "region_id": "", "rental_methods": null, "has_kiosk": null, "history": [ ] }, "geometry": { "type": "Point", "coordinates": [ 6.1471238, 46.1979739 ] } },
{ "type": "Feature", "properties": { "station_id": "Rue Saint-Victor", "name": "Rue Saint-Victor", "short_name": "", "lat": 46.1978841, "lon": 6.151061, "address": "", "capacity": null, "region_id": "", "rental_methods": null, "has_kiosk": null, "history": [ ] }, "geometry": { "type": "Point", "coordinates": [ 6.151061, 46.1978841 ] } },
{ "type": "Feature", "properties": { "station_id": "Rue du Temple", "name": "Rue du Temple", "short_name": "", "lat": 46.2061256, "lon": 6.1411253, "address": "", "capacity": null, "region_id": "", "rental_methods": null, "has_kiosk": null, "history": [ ] }, "geometry": { "type": "Point", "coordinates": [ 6.1411253, 46.2061256 ] } },
{ "type": "Feature", "properties": { "station_id": "Jean-Sénebier 14", "name": "Jean-Sénebier 14", "short_name": "", "lat": 46.197339, "lon": 6.1478058, "address": "", "capacity": null, "region_id": "", "rental_methods": null, "has_kiosk": null, "history": [ ] }, "geometry": { "type": "Point", "coordinates": [ 6.1478058, 46.197339 ] } },
{ "type": "Feature", "properties": { "station_id": "Rue François D'Ivernois", "name": "Rue François D'Ivernois", "short_name": "", "lat": 46.1971742, "lon": 6.1512172, "address": "", "capacity": null, "region_id": "", "rental_methods": null, "has_kiosk": null, "history": [ ] }, "geometry": { "type": "Point", "coordinates": [ 6.1512172, 46.1971742 ] } }
]
}
