{
"type": "FeatureCollection",
"name": "grid",
"crs": { "type": "name", "properties": { "name": "urn:ogc:def:crs:OGC:1.3:CRS84" } },
"features": [
{ "type": "Feature", "properties": { "id": "897a8dcac8fffff", "center": "(46.19638405213572, 6.1535556998967325)", "polygon": "[(6.152588111415705, 46.19789377006707), (6.154273760354442, 46.19786117657598), (6.155241342321332, 46.196351469601034), (6.154523288446501, 46.1948743219844), (6.152837617079627, 46.19490689404094), (6.151870022015233, 46.196416635149035)]", "points": "[(6.15373817, 46.19696266), (6.15384597, 46.19724247), (6.15405258, 46.19664554), (6.1540845, 46.195082), (6.1531468, 46.1966758), (6.1528473, 46.1949379), (6.1530576, 46.1971196), (6.1545398, 46.1960152)]" }, "geometry": { "type": "Polygon", "coordinates": [ [ [ 6.154523288446501, 46.1948743219844 ], [ 6.152837617079627, 46.19490689404094 ], [ 6.151870022015233, 46.196416635149035 ], [ 6.152588111415705, 46.197893770067068 ], [ 6.154273760354442, 46.197861176575977 ], [ 6.155241342321332, 46.196351469601034 ], [ 6.154523288446501, 46.1948743219844 ] ] ] } },
{ "type": "Feature", "properties": { "id": "897a8dc1237ffff", "center": "(46.198121937911054, 6.1407875761988455)", "polygon": "[(6.1398199422518545, 46.199631720318074), (6.141505845839731, 46.19959911251804), (6.142473473286382, 46.1980893410683), (6.141755210232206, 46.19661214328053), (6.140069284202855, 46.19664472964448), (6.139101643668692, 46.19815453523267)]", "points": "[(6.14194329, 46.19828085), (6.14204211, 46.19864149), (6.142088, 46.197586), (6.141155, 46.1995996)]" }, "geometry": { "type": "Polygon", "coordinates": [ [ [ 6.141755210232206, 46.196612143280532 ], [ 6.140069284202855, 46.196644729644483 ], [ 6.139101643668692, 46.198154535232668 ], [ 6.139819942251854, 46.199631720318074 ], [ 6.141505845839731, 46.199599112518037 ], [ 6.142473473286382, 46.198089341068297 ], [ 6.141755210232206, 46.196612143280532 ] ] ] } },
{ "type": "Feature", "properties": { "id": "897a8dca1a7ffff", "center": "(46.208330775424045, 6.152557559422338)", "polygon": "[(6.151589997582545, 46.2098403517079), (6.153275556771506, 46.20980767249378), (6.15424311210767, 46.20829810716389), (6.153525121343055, 46.20682118690552), (6.151839539711056, 46.20685384469115), (6.1508719712862305, 46.208363444164036)]", "points": "[(6.1515, 46.209511), (6.151391, 46.209339), (6.151313, 46.209145)]" }, "geometry": { "type": "Polygon", "coordinates": [ [ [ 6.153525121343055, 46.206821186905522 ], [ 6.151839539711056, 46.206853844691153 ], [ 6.150871971286231, 46.208363444164036 ], [ 6.151589997582545, 46.209840351707903 ], [ 6.153275556771506, 46.209807672493781 ], [ 6.15424311210767, 46.208298107163891 ], [ 6.153525121343055, 46.206821186905522 ] ] ] } },
{ "type": "Feature", "properties": { "id": "897a8dc1207ffff", "center": "(46.20409571331707, 6.140288851669215)", "polygon": "[(6.1393212310787835, 46.20560542489801), (6.14100708977253, 46.205572774230355), (6.1419747038678745, 46.2040630736055), (6.141256472352103, 46.20258598950531), (6.13957059120944, 46.202618618739905), (6.138602964030998, 46.204128353508125)]", "points": "[(6.13988615, 46.20369009), (6.13985022, 46.20364035), (6.13994903, 46.20397608), (6.14105396, 46.20359683), (6.14022751, 46.20410664), (6.14033531, 46.20417503), (6.14028141, 46.20416882), (6.140944, 46.203709), (6.140181, 46.204193), (6.139831, 46.203667), (6.140182, 46.20414), (6.141438, 46.203651), (6.14026, 46.204212), (6.141012, 46.203583), (6.139727, 46.203526), (6.139265, 46.2041899)]" }, "geometry": { "type": "Polygon", "coordinates": [ [ [ 6.141256472352103, 46.202585989505309 ], [ 6.13957059120944, 46.202618618739905 ], [ 6.138602964030998, 46.204128353508125 ], [ 6.139321231078783, 46.20560542489801 ], [ 6.14100708977253, 46.205572774230355 ], [ 6.141974703867874, 46.204063073605496 ], [ 6.141256472352103, 46.202585989505309 ] ] ] } },
{ "type": "Feature", "properties": { "id": "897a8dcacc3ffff", "center": "(46.20380197317223, 6.155460245416849)", "polygon": "[(6.154492683342089, 46.205311586154274), (6.156178223013704, 46.20527893980274), (6.157145778578399, 46.203769337775356), (6.156427807564738, 46.20229234796139), (6.154742245457971, 46.20232497288261), (6.153774676799524, 46.2038346090485)]", "points": "[(6.15541802, 46.20255855), (6.15578633, 46.20235959), (6.15555277, 46.20250259), (6.15611, 46.204052), (6.154483, 46.203773), (6.155128, 46.205276), (6.1563643, 46.2023076), (6.1555808, 46.2031314), (6.15607, 46.2039075)]" }, "geometry": { "type": "Polygon", "coordinates": [ [ [ 6.156427807564738, 46.202292347961389 ], [ 6.154742245457971, 46.202324972882607 ], [ 6.153774676799524, 46.203834609048499 ], [ 6.154492683342089, 46.205311586154274 ], [ 6.156178223013704, 46.205278939802739 ], [ 6.157145778578399, 46.203769337775356 ], [ 6.156427807564738, 46.202292347961389 ] ] ] } },
{ "type": "Feature", "properties": { "id": "897a8dc126bffff", "center": "(46.206886502956486, 6.15015392262842)", "polygon": "[(6.149186347701152, 46.20839611338388), (6.1508719712862305, 46.208363444164036), (6.151839539711056, 46.20685384469115), (6.151121497638318, 46.20537688029592), (6.149435851609771, 46.205409528086065), (6.148468270096953, 46.20691916170152)]", "points": "[(6.149011, 46.208015)]" }, "geometry": { "type": "Polygon", "coordinates": [ [ [ 6.151121497638318, 46.205376880295923 ], [ 6.149435851609771, 46.205409528086065 ], [ 6.148468270096953, 46.206919161701521 ], [ 6.149186347701152, 46.208396113383877 ], [ 6.150871971286231, 46.208363444164036 ], [ 6.151839539711056, 46.206853844691153 ], [ 6.151121497638318, 46.205376880295923 ] ] ] } },
{ "type": "Feature", "properties": { "id": "897a8dc123bffff", "center": "(46.20255336075002, 6.142942318053548)", "polygon": "[(6.1419747038678745, 46.2040630736055), (6.143660520625182, 46.20403043437336), (6.144628128311967, 46.202520732474014), (6.143909932326913, 46.201043635665854), (6.142224093124837, 46.20107625346462), (6.141256472352103, 46.20258598950531)]", "points": "[(6.14251822, 46.20332949), (6.14294042, 46.20238446), (6.14399145, 46.20152646), (6.14185346, 46.20217307), (6.14181753, 46.20207359), (6.14187143, 46.20234716), (6.142733, 46.202274), (6.144065, 46.201393), (6.144033, 46.201412), (6.143541, 46.201492), (6.141693, 46.202175), (6.142825, 46.202328), (6.142744, 46.202877), (6.142854, 46.202396), (6.142707, 46.202934), (6.144029, 46.201504), (6.143519, 46.202244), (6.143638, 46.201061), (6.1433116, 46.2038067), (6.1414002, 46.2028401), (6.1438301, 46.2017625), (6.143123, 46.2018665), (6.1416152, 46.2025527), (6.1424538, 46.201362)]" }, "geometry": { "type": "Polygon", "coordinates": [ [ [ 6.143909932326913, 46.201043635665854 ], [ 6.142224093124837, 46.20107625346462 ], [ 6.141256472352103, 46.202585989505309 ], [ 6.141974703867874, 46.204063073605496 ], [ 6.143660520625182, 46.204030434373358 ], [ 6.144628128311967, 46.202520732474014 ], [ 6.143909932326913, 46.201043635665854 ] ] ] } },
{ "type": "Feature", "properties": { "id": "897a8dcac93ffff", "center": "(46.1994686861078, 6.148249105745643)", "polygon": "[(6.147281504395185, 46.20097840150569), (6.148967237257775, 46.200945785144285), (6.149934832101706, 46.19943608070266), (6.149216707174321, 46.19795895848558), (6.147530951875273, 46.19799155341303), (6.146563343939603, 46.1995012919919)]", "points": "[(6.14835727, 46.19958036), (6.14749488, 46.19842386), (6.1489232, 46.1981565), (6.14869863, 46.19818137), (6.14860879, 46.19837412), (6.14909388, 46.1982622), (6.14878846, 46.19846117), (6.14852795, 46.20013995), (6.14819557, 46.20083632), (6.14712657, 46.19988503), (6.14688403, 46.19989746), (6.14860879, 46.20015239), (6.14784523, 46.2004757), (6.1477, 46.199665), (6.147563, 46.200542), (6.148766, 46.198479), (6.149223, 46.198833), (6.148546, 46.198406), (6.147391, 46.198502), (6.147648, 46.19968), (6.147545, 46.198769), (6.1484456, 46.2000917), (6.147423, 46.1986323), (6.1494832, 46.1988497)]" }, "geometry": { "type": "Polygon", "coordinates": [ [ [ 6.149216707174321, 46.197958958485579 ], [ 6.147530951875273, 46.197991553413033 ], [ 6.146563343939603, 46.199501291991901 ], [ 6.147281504395185, 46.200978401505687 ], [ 6.148967237257775, 46.200945785144285 ], [ 6.149934832101706, 46.199436080702661 ], [ 6.149216707174321, 46.197958958485579 ] ] ] } },
{ "type": "Feature", "properties": { "id": "897a8dc13cbffff", "center": "(46.19513491183453, 6.141036924822936)", "polygon": "[(6.140069284202855, 46.19664472964448), (6.141755210232206, 46.19661214328053), (6.142722844349333, 46.19510233642844), (6.142004565526339, 46.193625081804726), (6.140318617059227, 46.19365764673108), (6.139350969852394, 46.19516748771914)]", "points": "[(6.141932, 46.19553), (6.141982, 46.195499)]" }, "geometry": { "type": "Polygon", "coordinates": [ [ [ 6.142004565526339, 46.193625081804726 ], [ 6.140318617059227, 46.193657646731083 ], [ 6.139350969852394, 46.195167487719139 ], [ 6.140069284202855, 46.196644729644483 ], [ 6.141755210232206, 46.196612143280532 ], [ 6.142722844349333, 46.195102336428441 ], [ 6.142004565526339, 46.193625081804726 ] ] ] } },
{ "type": "Feature", "properties": { "id": "897a8dc1267ffff", "center": "(46.20245547735985, 6.147999642492493)", "polygon": "[(6.147032047808508, 46.20396515734741), (6.148717758230912, 46.20393251955358), (6.1496853464110215, 46.202422850521664), (6.148967237257775, 46.200945785144285), (6.147281504395185, 46.20097840150569), (6.146313903125548, 46.202488104677286)]", "points": "[(6.14781828, 46.20146429), (6.14718047, 46.20311189), (6.14740505, 46.20301863), (6.14692894, 46.20320515), (6.1473478, 46.2023685), (6.1488988, 46.2032448)]" }, "geometry": { "type": "Polygon", "coordinates": [ [ [ 6.148967237257775, 46.200945785144285 ], [ 6.147281504395185, 46.200978401505687 ], [ 6.146313903125548, 46.202488104677286 ], [ 6.147032047808508, 46.203965157347412 ], [ 6.148717758230912, 46.203932519553582 ], [ 6.149685346411021, 46.202422850521664 ], [ 6.148967237257775, 46.200945785144285 ] ] ] } },
{ "type": "Feature", "properties": { "id": "897a8dc120bffff", "center": "(46.20852679506198, 6.142443498907109)", "polygon": "[(6.141475898080508, 46.210036437072986), (6.1431616699371006, 46.2100037549787), (6.144129264270072, 46.20849412392262), (6.143411099827527, 46.207017140814976), (6.141725305518704, 46.207049801478924), (6.14075769810419, 46.20855946668125)]", "points": "[(6.14243737, 46.20973289), (6.14232957, 46.20965207), (6.14294941, 46.20989452), (6.14230262, 46.20939719), (6.14223974, 46.2093599), (6.1414582, 46.20991938), (6.14184448, 46.20957747), (6.14355128, 46.20815387), (6.14363213, 46.20815387), (6.14219482, 46.20744516), (6.14192533, 46.20725244), (6.1423655, 46.20760058), (6.14200618, 46.20725244), (6.14229364, 46.20761301), (6.14144922, 46.20753841), (6.14153007, 46.20761301), (6.142212, 46.207619), (6.142012, 46.207325), (6.141869, 46.207291), (6.14362, 46.208324), (6.142349, 46.209454), (6.14282, 46.208729), (6.141668, 46.20977), (6.141884, 46.207882), (6.142307, 46.209328), (6.142284, 46.209332), (6.142342, 46.20929), (6.142027, 46.208305), (6.142287, 46.207447), (6.141909, 46.207294), (6.142186, 46.207607), (6.143484, 46.20821), (6.142338, 46.2094), (6.141825, 46.209179), (6.141788, 46.209656), (6.142298, 46.209263), (6.14155, 46.209717), (6.141834, 46.207924), (6.142507, 46.209335), (6.142624, 46.209896), (6.142323, 46.209248), (6.141572, 46.209705), (6.142456, 46.209759), (6.1425051, 46.2093526), (6.1424073, 46.2085539), (6.1412041, 46.2087165)]" }, "geometry": { "type": "Polygon", "coordinates": [ [ [ 6.143411099827527, 46.207017140814976 ], [ 6.141725305518704, 46.207049801478924 ], [ 6.14075769810419, 46.208559466681251 ], [ 6.141475898080508, 46.210036437072986 ], [ 6.143161669937101, 46.2100037549787 ], [ 6.144129264270072, 46.20849412392262 ], [ 6.143411099827527, 46.207017140814976 ] ] ] } },
{ "type": "Feature", "properties": { "id": "897a8dc126fffff", "center": "(46.20389988223916, 6.1504034332047555)", "polygon": "[(6.149435851609771, 46.205409528086065), (6.151121497638318, 46.20537688029592), (6.152089072728227, 46.20386724540414), (6.151371014879304, 46.20239022416275), (6.1496853464110215, 46.202422850521664), (6.148717758230912, 46.20393251955358)]", "points": "[(6.15151934, 46.20339788), (6.15151035, 46.20337301), (6.15094441, 46.20337301), (6.150882, 46.204964), (6.150186, 46.20467), (6.150015, 46.204784), (6.151448, 46.203381), (6.150798, 46.203453), (6.149666, 46.202534), (6.149612, 46.202541), (6.149528, 46.2041793), (6.1514251, 46.2031806)]" }, "geometry": { "type": "Polygon", "coordinates": [ [ [ 6.151371014879304, 46.202390224162748 ], [ 6.149685346411021, 46.202422850521664 ], [ 6.148717758230912, 46.203932519553582 ], [ 6.149435851609771, 46.205409528086065 ], [ 6.151121497638318, 46.205376880295923 ], [ 6.152089072728227, 46.20386724540414 ], [ 6.151371014879304, 46.202390224162748 ] ] ] } },
{ "type": "Feature", "properties": { "id": "897a8dcac5bffff", "center": "(46.20514835919167, 6.162920027123126)", "polygon": "[(6.161952497680376, 46.20665790517239), (6.163637866570733, 46.206625250264715), (6.164605389497213, 46.2051157152376), (6.163887556630867, 46.20363880098127), (6.162202165310415, 46.2036714344608), (6.161234629285938, 46.20518100362519)]", "points": "[(6.1625304, 46.2053963), (6.1622508, 46.2046266)]" }, "geometry": { "type": "Polygon", "coordinates": [ [ [ 6.163887556630867, 46.203638800981267 ], [ 6.162202165310415, 46.203671434460801 ], [ 6.161234629285938, 46.205181003625192 ], [ 6.161952497680376, 46.206657905172392 ], [ 6.163637866570733, 46.206625250264715 ], [ 6.164605389497213, 46.205115715237604 ], [ 6.163887556630867, 46.203638800981267 ] ] ] } },
{ "type": "Feature", "properties": { "id": "897a8dc1203ffff", "center": "(46.20708246262266, 6.140039475770063)", "polygon": "[(6.1390718618631075, 46.208592138780425), (6.14075769810419, 46.20855946668125), (6.141725305518704, 46.207049801478924), (6.14100708977253, 46.205572774230355), (6.1393212310787835, 46.20560542489801), (6.138353610583404, 46.20711512424615)]", "points": "[(6.13953581, 46.20686699), (6.13958971, 46.20725244), (6.13904174, 46.20680483), (6.13998497, 46.20650642), (6.13949089, 46.20717162), (6.139576, 46.207275), (6.139525, 46.20723), (6.1412344, 46.2072477), (6.1409662, 46.2076433), (6.1396961, 46.2060901), (6.1393971, 46.2082382), (6.1401026, 46.2068494), (6.1411253, 46.2061256)]" }, "geometry": { "type": "Polygon", "coordinates": [ [ [ 6.14100708977253, 46.205572774230355 ], [ 6.139321231078783, 46.20560542489801 ], [ 6.138353610583404, 46.207115124246151 ], [ 6.139071861863107, 46.208592138780425 ], [ 6.14075769810419, 46.208559466681251 ], [ 6.141725305518704, 46.207049801478924 ], [ 6.14100708977253, 46.205572774230355 ] ] ] } },
{ "type": "Feature", "properties": { "id": "897a8dca1a3ffff", "center": "(46.21131722558726, 6.1523080015167)", "polygon": "[(6.151340446345861, 46.2128267664424), (6.153025983088079, 46.21279406580132), (6.153993531757907, 46.211284535899544), (6.153275556771506, 46.20980767249378), (6.151589997582545, 46.2098403517079), (6.150622435826252, 46.21134991575512)]", "points": "[(6.1525524, 46.2113243), (6.15184273, 46.21075861), (6.1526709, 46.2112069), (6.1510593, 46.2107688)]" }, "geometry": { "type": "Polygon", "coordinates": [ [ [ 6.153275556771506, 46.209807672493781 ], [ 6.151589997582545, 46.209840351707903 ], [ 6.150622435826252, 46.211349915755122 ], [ 6.151340446345861, 46.212826766442397 ], [ 6.153025983088079, 46.212794065801319 ], [ 6.153993531757907, 46.211284535899544 ], [ 6.153275556771506, 46.209807672493781 ] ] ] } },
{ "type": "Feature", "properties": { "id": "897a8dcacc7ffff", "center": "(46.20081532448962, 6.155709814189103)", "polygon": "[(6.154742245457971, 46.20232497288261), (6.156427807564738, 46.20229234796139), (6.157395369783171, 46.20078271052363), (6.156677382990314, 46.19930566387146), (6.15499179845212, 46.19933826736088), (6.1540242231377285, 46.20084793893467)]", "points": "[(6.15601091, 46.2022912), (6.15578633, 46.20179381), (6.15641515, 46.2010788), (6.15647804, 46.20098554), (6.15590311, 46.20114719), (6.15520243, 46.20073062), (6.15574142, 46.20096689), (6.155241, 46.200729), (6.155883, 46.201035), (6.156063, 46.201054), (6.1558235, 46.2012952)]" }, "geometry": { "type": "Polygon", "coordinates": [ [ [ 6.156677382990314, 46.199305663871463 ], [ 6.15499179845212, 46.199338267360879 ], [ 6.154024223137728, 46.200847938934672 ], [ 6.154742245457971, 46.202324972882607 ], [ 6.156427807564738, 46.202292347961389 ], [ 6.157395369783171, 46.200782710523633 ], [ 6.156677382990314, 46.199305663871463 ] ] ] } },
{ "type": "Feature", "properties": { "id": "897a8dcac97ffff", "center": "(46.19648180261156, 6.148498559888734)", "polygon": "[(6.147530951875273, 46.19799155341303), (6.149216707174321, 46.19795895848558), (6.150184308678625, 46.196449218640986), (6.149466167977362, 46.19497203958943), (6.1477803902455985, 46.19500461308142), (6.146812775647329, 46.1965143870608)]", "points": "[(6.14882439, 46.19502884), (6.148654, 46.195263), (6.148694, 46.195389), (6.148572, 46.197697), (6.149695, 46.196655), (6.14978, 46.195789), (6.1486306, 46.1967467), (6.1478557, 46.1959623), (6.1482805, 46.1977578), (6.1478058, 46.197339)]" }, "geometry": { "type": "Polygon", "coordinates": [ [ [ 6.149466167977362, 46.19497203958943 ], [ 6.147780390245599, 46.195004613081423 ], [ 6.146812775647329, 46.196514387060802 ], [ 6.147530951875273, 46.197991553413033 ], [ 6.149216707174321, 46.197958958485579 ], [ 6.150184308678625, 46.196449218640986 ], [ 6.149466167977362, 46.19497203958943 ] ] ] } },
{ "type": "Feature", "properties": { "id": "897a8dcac03ffff", "center": "(46.196286305967476, 6.158612520792642)", "polygon": "[(6.157644951859033, 46.197795991030105), (6.15933049442126, 46.19776339897529), (6.160298056835738, 46.19625372486858), (6.159580089788552, 46.19477660868554), (6.157894524802769, 46.19480917930671), (6.156926949287237, 46.196318887544955)]", "points": "[(6.1577756, 46.1953656)]" }, "geometry": { "type": "Polygon", "coordinates": [ [ [ 6.159580089788552, 46.194776608685537 ], [ 6.157894524802769, 46.194809179306709 ], [ 6.156926949287237, 46.196318887544955 ], [ 6.157644951859033, 46.197795991030105 ], [ 6.15933049442126, 46.19776339897529 ], [ 6.160298056835738, 46.196253724868583 ], [ 6.159580089788552, 46.194776608685537 ] ] ] } },
{ "type": "Feature", "properties": { "id": "897a8dc120fffff", "center": "(46.20554012404232, 6.142692913026572)", "polygon": "[(6.141725305518704, 46.207049801478924), (6.143411099827527, 46.207017140814976), (6.1443787008391215, 46.205507474333885), (6.143660520625182, 46.20403043437336), (6.1419747038678745, 46.2040630736055), (6.14100708977253, 46.205572774230355)]", "points": "[(6.14304822, 46.20472836), (6.14346145, 46.20487135), (6.14345246, 46.20452941), (6.14297636, 46.20506408), (6.14206008, 46.2042372), (6.143211, 46.204281), (6.141748, 46.205776), (6.142945, 46.20702), (6.142167, 46.205688), (6.141803, 46.205723), (6.141773, 46.205795), (6.143483, 46.204826), (6.143449, 46.204601), (6.143751, 46.204456), (6.143086, 46.204651), (6.14305, 46.205036), (6.143477, 46.204845), (6.1427931, 46.2057147), (6.1428894, 46.2069752), (6.141601, 46.2054865)]" }, "geometry": { "type": "Polygon", "coordinates": [ [ [ 6.143660520625182, 46.204030434373358 ], [ 6.141974703867874, 46.204063073605496 ], [ 6.14100708977253, 46.205572774230355 ], [ 6.141725305518704, 46.207049801478924 ], [ 6.143411099827527, 46.207017140814976 ], [ 6.144378700839122, 46.205507474333885 ], [ 6.143660520625182, 46.204030434373358 ] ] ] } },
{ "type": "Feature", "properties": { "id": "897a8dcaccbffff", "center": "(46.20524629393072, 6.157863727229427)", "polygon": "[(6.156896178247915, 46.20675587277329), (6.158581653517177, 46.20672321642668), (6.159549195987433, 46.20521364853821), (6.158831276282372, 46.20373670285783), (6.157145778578399, 46.203769337775356), (6.156178223013704, 46.20527893980274)]", "points": "[(6.15801415, 46.2038393), (6.15854416, 46.20410664), (6.1578497, 46.2053158), (6.1591623, 46.2051736), (6.1589403, 46.204237)]" }, "geometry": { "type": "Polygon", "coordinates": [ [ [ 6.158831276282372, 46.203736702857832 ], [ 6.157145778578399, 46.203769337775356 ], [ 6.156178223013704, 46.205278939802739 ], [ 6.156896178247915, 46.206755872773293 ], [ 6.158581653517177, 46.206723216426681 ], [ 6.159549195987433, 46.205213648538212 ], [ 6.158831276282372, 46.203736702857832 ] ] ] } },
{ "type": "Feature", "properties": { "id": "897a8dc1273ffff", "center": "(46.20698448063075, 6.145096858694698)", "polygon": "[(6.144129264270072, 46.20849412392262), (6.145814994191266, 46.20846145326316), (6.146782582118448, 46.20695182092627), (6.146064453208369, 46.205474825105036), (6.1443787008391215, 46.205507474333885), (6.143411099827527, 46.207017140814976)]", "points": "[(6.144948, 46.207363), (6.1447417, 46.2064075), (6.1464734, 46.2067751), (6.1441195, 46.2068767), (6.1448973, 46.2072301)]" }, "geometry": { "type": "Polygon", "coordinates": [ [ [ 6.146064453208369, 46.205474825105036 ], [ 6.144378700839122, 46.205507474333885 ], [ 6.143411099827527, 46.207017140814976 ], [ 6.144129264270072, 46.20849412392262 ], [ 6.145814994191266, 46.208461453263162 ], [ 6.146782582118448, 46.206951820926271 ], [ 6.146064453208369, 46.205474825105036 ] ] ] } },
{ "type": "Feature", "properties": { "id": "897a8dcac9bffff", "center": "(46.20091316926199, 6.150652934670258)", "polygon": "[(6.1496853464110215, 46.202422850521664), (6.151371014879304, 46.20239022416275), (6.152338596630839, 46.20088055385879), (6.151620523006015, 46.19940347577646), (6.149934832101706, 46.19943608070266), (6.148967237257775, 46.200945785144285)]", "points": "[(6.15185171, 46.20163216), (6.15114204, 46.1996301), (6.15165408, 46.19986016), (6.15094441, 46.19992855), (6.15098035, 46.1999099), (6.151813, 46.201645), (6.1506667, 46.2016987)]" }, "geometry": { "type": "Polygon", "coordinates": [ [ [ 6.151620523006015, 46.199403475776457 ], [ 6.149934832101706, 46.199436080702661 ], [ 6.148967237257775, 46.200945785144285 ], [ 6.149685346411021, 46.202422850521664 ], [ 6.151371014879304, 46.202390224162748 ], [ 6.152338596630839, 46.200880553858788 ], [ 6.151620523006015, 46.199403475776457 ] ] ] } },
{ "type": "Feature", "properties": { "id": "897a8dc1233ffff", "center": "(46.201108871742555, 6.140538218479875)", "polygon": "[(6.13957059120944, 46.202618618739905), (6.141256472352103, 46.20258598950531), (6.142224093124837, 46.20107625346462), (6.141505845839731, 46.19959911251804), (6.1398199422518545, 46.199631720318074), (6.138852308393824, 46.20114149049965)]", "points": "[(6.14032633, 46.20108502), (6.1406048, 46.20080523), (6.14083837, 46.20035135), (6.139967, 46.20075549), (6.139967, 46.20129641), (6.13948191, 46.20145185), (6.14166482, 46.20188085), (6.141396, 46.200207), (6.14124, 46.201614), (6.1398463, 46.2011859), (6.139445, 46.2016516), (6.1396609, 46.2007559), (6.1417383, 46.201206), (6.141049, 46.2006217), (6.1414694, 46.2002036)]" }, "geometry": { "type": "Polygon", "coordinates": [ [ [ 6.141505845839731, 46.199599112518037 ], [ 6.139819942251854, 46.199631720318074 ], [ 6.138852308393824, 46.201141490499651 ], [ 6.13957059120944, 46.202618618739905 ], [ 6.141256472352103, 46.202585989505309 ], [ 6.142224093124837, 46.20107625346462 ], [ 6.141505845839731, 46.199599112518037 ] ] ] } },
{ "type": "Feature", "properties": { "id": "897a8dcac8bffff", "center": "(46.19937087132921, 6.153306178456748)", "polygon": "[(6.152338596630839, 46.20088055385879), (6.1540242231377285, 46.20084793893467), (6.15499179845212, 46.19933826736088), (6.154273760354442, 46.19786117657598), (6.152588111415705, 46.19789377006707), (6.151620523006015, 46.19940347577646)]", "points": "[(6.15277698, 46.19841764), (6.15280393, 46.19841764), (6.153919, 46.19788), (6.154004, 46.197998), (6.1518549, 46.199425)]" }, "geometry": { "type": "Polygon", "coordinates": [ [ [ 6.154273760354442, 46.197861176575977 ], [ 6.152588111415705, 46.197893770067068 ], [ 6.151620523006015, 46.199403475776457 ], [ 6.152338596630839, 46.200880553858788 ], [ 6.154024223137728, 46.200847938934672 ], [ 6.15499179845212, 46.199338267360879 ], [ 6.154273760354442, 46.197861176575977 ] ] ] } },
{ "type": "Feature", "properties": { "id": "897a8dca1b3ffff", "center": "(46.21285946756379, 6.149654874156067)", "polygon": "[(6.148687312574586, 46.21436900713194), (6.150372891261574, 46.21433629505726), (6.151340446345861, 46.2128267664424), (6.150622435826252, 46.21134991575512), (6.148936834688346, 46.21138260640315), (6.147969266520486, 46.2128921691655)]", "points": "[(6.14964186, 46.21188998), (6.14965084, 46.21195214), (6.14947118, 46.21182782), (6.149625, 46.211964), (6.149514, 46.211941), (6.149602, 46.211922), (6.149591, 46.211781), (6.1495787, 46.2115266)]" }, "geometry": { "type": "Polygon", "coordinates": [ [ [ 6.150622435826252, 46.211349915755122 ], [ 6.148936834688346, 46.211382606403149 ], [ 6.147969266520486, 46.212892169165499 ], [ 6.148687312574586, 46.214369007131943 ], [ 6.150372891261574, 46.214336295057258 ], [ 6.151340446345861, 46.212826766442397 ], [ 6.150622435826252, 46.211349915755122 ] ] ] } },
{ "type": "Feature", "properties": { "id": "897a8dc1213ffff", "center": "(46.208624811359535, 6.137385990185649)", "polygon": "[(6.136418369888141, 46.21013448623624), (6.138104248054224, 46.21010180270175), (6.1390718618631075, 46.208592138780425), (6.138353610583404, 46.20711512424615), (6.136667709960505, 46.20714778634942), (6.135700083073659, 46.20865748441859)]", "points": "[(6.138489, 46.20752)]" }, "geometry": { "type": "Polygon", "coordinates": [ [ [ 6.138353610583404, 46.207115124246151 ], [ 6.136667709960505, 46.207147786349417 ], [ 6.135700083073659, 46.208657484418588 ], [ 6.136418369888141, 46.210134486236242 ], [ 6.138104248054224, 46.21010180270175 ], [ 6.139071861863107, 46.208592138780425 ], [ 6.138353610583404, 46.207115124246151 ] ] ] } },
{ "type": "Feature", "properties": { "id": "897a8dc1277ffff", "center": "(46.20399779562068, 6.145346301939326)", "polygon": "[(6.1443787008391215, 46.205507474333885), (6.146064453208369, 46.205474825105036), (6.147032047808508, 46.20396515734741), (6.146313903125548, 46.202488104677286), (6.144628128311967, 46.202520732474014), (6.143660520625182, 46.20403043437336)]", "points": "[(6.14383874, 46.20391391), (6.14464722, 46.20365901), (6.14373992, 46.20392635), (6.143731, 46.20396), (6.144637, 46.203716), (6.143879, 46.203976), (6.1460944, 46.2041587)]" }, "geometry": { "type": "Polygon", "coordinates": [ [ [ 6.146313903125548, 46.202488104677286 ], [ 6.144628128311967, 46.202520732474014 ], [ 6.143660520625182, 46.204030434373358 ], [ 6.144378700839122, 46.205507474333885 ], [ 6.146064453208369, 46.205474825105036 ], [ 6.147032047808508, 46.203965157347412 ], [ 6.146313903125548, 46.202488104677286 ] ] ] } },
{ "type": "Feature", "properties": { "id": "897a8dcaccfffff", "center": "(46.20225972351935, 6.15811333421407)", "polygon": "[(6.157145778578399, 46.203769337775356), (6.158831276282372, 46.20373670285783), (6.159798825404169, 46.202227099556545), (6.159080889918136, 46.20075009703671), (6.157395369783171, 46.20078271052363), (6.156427807564738, 46.20229234796139)]", "points": "[(6.15658583, 46.20232229), (6.15690923, 46.20175029), (6.15748415, 46.20352223), (6.15749, 46.201778), (6.157694, 46.201733), (6.1576766, 46.2023365), (6.1586265, 46.2035996), (6.1592887, 46.2022268), (6.1587204, 46.2032123)]" }, "geometry": { "type": "Polygon", "coordinates": [ [ [ 6.159080889918136, 46.20075009703671 ], [ 6.157395369783171, 46.200782710523633 ], [ 6.156427807564738, 46.202292347961389 ], [ 6.157145778578399, 46.203769337775356 ], [ 6.158831276282372, 46.203736702857832 ], [ 6.159798825404169, 46.202227099556545 ], [ 6.159080889918136, 46.20075009703671 ] ] ] } },
{ "type": "Feature", "properties": { "id": "897a8dc1247ffff", "center": "(46.20997107336448, 6.144847406353609)", "polygon": "[(6.143879818608028, 46.21148068122828), (6.145565526077433, 46.21144798913972), (6.146533107328195, 46.209938392230285), (6.145814994191266, 46.20846145326316), (6.144129264270072, 46.20849412392262), (6.1431616699371006, 46.2100037549787)]", "points": "[(6.14363213, 46.21039805), (6.144149, 46.210583), (6.144199, 46.210552), (6.14419, 46.210865), (6.143984, 46.210957), (6.1443209, 46.2089975), (6.1449087, 46.2102549), (6.1457237, 46.209689), (6.1447897, 46.2087736), (6.1451953, 46.209787)]" }, "geometry": { "type": "Polygon", "coordinates": [ [ [ 6.145814994191266, 46.208461453263162 ], [ 6.144129264270072, 46.20849412392262 ], [ 6.143161669937101, 46.2100037549787 ], [ 6.143879818608028, 46.211480681228281 ], [ 6.145565526077433, 46.211447989139721 ], [ 6.146533107328195, 46.209938392230285 ], [ 6.145814994191266, 46.208461453263162 ] ] ] } },
{ "type": "Feature", "properties": { "id": "897a8dc12abffff", "center": "(46.20265124845381, 6.137884674627347)", "polygon": "[(6.136917040955024, 46.20416099417866), (6.138602964030998, 46.204128353508125), (6.13957059120944, 46.202618618739905), (6.138852308393824, 46.20114149049965), (6.137166362868481, 46.201174109735895), (6.136198722607646, 46.20268387864706)]", "points": "[(6.138674, 46.203377), (6.138266, 46.201351), (6.137817, 46.202801), (6.1377357, 46.2031888), (6.1372219, 46.2013132), (6.1380224, 46.2038939), (6.1369485, 46.2039152)]" }, "geometry": { "type": "Polygon", "coordinates": [ [ [ 6.138852308393824, 46.201141490499651 ], [ 6.137166362868481, 46.201174109735895 ], [ 6.136198722607646, 46.202683878647058 ], [ 6.136917040955024, 46.204160994178658 ], [ 6.138602964030998, 46.204128353508125 ], [ 6.13957059120944, 46.202618618739905 ], [ 6.138852308393824, 46.201141490499651 ] ] ] } },
{ "type": "Feature", "properties": { "id": "897a8dcac0bffff", "center": "(46.19773080739921, 6.161016001521061)", "polygon": "[(6.160048445688001, 46.19924045832934), (6.1617339238438875, 46.19920785627661), (6.162701473156634, 46.197698216301866), (6.161983557414741, 46.19622114424826), (6.160298056835738, 46.19625372486858), (6.15933049442126, 46.19776339897529)]", "points": "[(6.160869, 46.197834), (6.1608216, 46.1977199)]" }, "geometry": { "type": "Polygon", "coordinates": [ [ [ 6.161983557414741, 46.196221144248263 ], [ 6.160298056835738, 46.196253724868583 ], [ 6.15933049442126, 46.19776339897529 ], [ 6.160048445688001, 46.199240458329342 ], [ 6.161733923843888, 46.199207856276608 ], [ 6.162701473156634, 46.197698216301866 ], [ 6.161983557414741, 46.196221144248263 ] ] ] } },
{ "type": "Feature", "properties": { "id": "897a8dca1b7ffff", "center": "(46.20987303140201, 6.1499044029444665)", "polygon": "[(6.148936834688346, 46.21138260640315), (6.150622435826252, 46.21134991575512), (6.151589997582545, 46.2098403517079), (6.1508719712862305, 46.208363444164036), (6.149186347701152, 46.20839611338388), (6.148218772859088, 46.20990571157615)]", "points": "[(6.148501, 46.21047887), (6.150679, 46.209534), (6.149634, 46.210247), (6.151235, 46.210026), (6.148554, 46.210117), (6.15059, 46.209602), (6.151139, 46.210091), (6.1498047, 46.2104074)]" }, "geometry": { "type": "Polygon", "coordinates": [ [ [ 6.150871971286231, 46.208363444164036 ], [ 6.149186347701152, 46.208396113383877 ], [ 6.148218772859088, 46.209905711576148 ], [ 6.148936834688346, 46.211382606403149 ], [ 6.150622435826252, 46.211349915755122 ], [ 6.151589997582545, 46.209840351707903 ], [ 6.150871971286231, 46.208363444164036 ] ] ] } },
{ "type": "Feature", "properties": { "id": "897a8dc1217ffff", "center": "(46.20563807604528, 6.137635336947155)", "polygon": "[(6.136667709960505, 46.20714778634942), (6.138353610583404, 46.20711512424615), (6.1393212310787835, 46.20560542489801), (6.138602964030998, 46.204128353508125), (6.136917040955024, 46.20416099417866), (6.135949407379445, 46.205670727672185)]", "points": "[(6.1380201, 46.2064096)]" }, "geometry": { "type": "Polygon", "coordinates": [ [ [ 6.138602964030998, 46.204128353508125 ], [ 6.136917040955024, 46.204160994178658 ], [ 6.135949407379445, 46.205670727672185 ], [ 6.136667709960505, 46.207147786349417 ], [ 6.138353610583404, 46.207115124246151 ], [ 6.139321231078783, 46.20560542489801 ], [ 6.138602964030998, 46.204128353508125 ] ] ] } },
{ "type": "Feature", "properties": { "id": "897a8dc127bffff", "center": "(46.208428783083576, 6.1475006886689005)", "polygon": "[(6.146533107328195, 46.209938392230285), (6.148218772859088, 46.20990571157615), (6.149186347701152, 46.20839611338388), (6.148468270096953, 46.20691916170152), (6.146782582118448, 46.20695182092627), (6.145814994191266, 46.20846145326316)]", "points": "[(6.14718946, 46.2090242), (6.14715352, 46.20903663), (6.14699183, 46.20734569), (6.14735115, 46.20703485), (6.14665047, 46.20760679), (6.146775, 46.209145), (6.146923, 46.209049), (6.146542, 46.207912), (6.149116, 46.208286), (6.147541, 46.208805), (6.14702, 46.209), (6.148756, 46.208107), (6.1488421, 46.2080078), (6.1465002, 46.2077679), (6.1467867, 46.2096233), (6.1463984, 46.2084035), (6.14606, 46.208767)]" }, "geometry": { "type": "Polygon", "coordinates": [ [ [ 6.148468270096953, 46.206919161701521 ], [ 6.146782582118448, 46.206951820926271 ], [ 6.145814994191266, 46.208461453263162 ], [ 6.146533107328195, 46.209938392230285 ], [ 6.148218772859088, 46.209905711576148 ], [ 6.149186347701152, 46.208396113383877 ], [ 6.148468270096953, 46.206919161701521 ] ] ] } },
{ "type": "Feature", "properties": { "id": "897a8dcacbbffff", "center": "(46.19339714071458, 6.153805212212306)", "polygon": "[(6.152837617079627, 46.19490689404094), (6.154523288446501, 46.1948743219844), (6.155490877062415, 46.193364579615036), (6.1547728074106836, 46.1918873751719), (6.1530871136193905, 46.19191992579236), (6.152119511903758, 46.193429702292434)]", "points": "[(6.15433106, 46.19408366), (6.15309139, 46.19412097), (6.15473, 46.194397), (6.153208, 46.194122)]" }, "geometry": { "type": "Polygon", "coordinates": [ [ [ 6.154772807410684, 46.191887375171902 ], [ 6.153087113619391, 46.191919925792362 ], [ 6.152119511903758, 46.193429702292434 ], [ 6.152837617079627, 46.19490689404094 ], [ 6.154523288446501, 46.1948743219844 ], [ 6.155490877062415, 46.193364579615036 ], [ 6.154772807410684, 46.191887375171902 ] ] ] } },
{ "type": "Feature", "properties": { "id": "897a8dc1263ffff", "center": "(46.20544217635577, 6.147750170132524)", "polygon": "[(6.146782582118448, 46.20695182092627), (6.148468270096953, 46.20691916170152), (6.149435851609771, 46.205409528086065), (6.148717758230912, 46.20393251955358), (6.147032047808508, 46.20396515734741), (6.146064453208369, 46.205474825105036)]", "points": "[(6.14850998, 46.20398852), (6.1483932, 46.20409421), (6.148441, 46.203964), (6.148322, 46.20414), (6.147013, 46.2046831), (6.1473036, 46.2069193), (6.1481548, 46.2040222)]" }, "geometry": { "type": "Polygon", "coordinates": [ [ [ 6.148717758230912, 46.203932519553582 ], [ 6.147032047808508, 46.203965157347412 ], [ 6.146064453208369, 46.205474825105036 ], [ 6.146782582118448, 46.206951820926271 ], [ 6.148468270096953, 46.206919161701521 ], [ 6.149435851609771, 46.205409528086065 ], [ 6.148717758230912, 46.203932519553582 ] ] ] } },
{ "type": "Feature", "properties": { "id": "897a8dc12afffff", "center": "(46.19966432859711, 6.138134003223032)", "polygon": "[(6.137166362868481, 46.201174109735895), (6.138852308393824, 46.20114149049965), (6.1398199422518545, 46.199631720318074), (6.139101643668692, 46.19815453523267), (6.137415675697705, 46.19818713303313), (6.136448028755074, 46.199696937355185)]", "points": "[(6.13754155, 46.19974824), (6.1376224, 46.19983529), (6.137472, 46.199898), (6.137555, 46.199707), (6.139186, 46.198627), (6.137527, 46.200825), (6.137809, 46.20097), (6.1376221, 46.2008162), (6.1385006, 46.2010616)]" }, "geometry": { "type": "Polygon", "coordinates": [ [ [ 6.139101643668692, 46.198154535232668 ], [ 6.137415675697705, 46.19818713303313 ], [ 6.136448028755074, 46.199696937355185 ], [ 6.137166362868481, 46.201174109735895 ], [ 6.138852308393824, 46.201141490499651 ], [ 6.139819942251854, 46.199631720318074 ], [ 6.139101643668692, 46.198154535232668 ] ] ] } },
{ "type": "Feature", "properties": { "id": "897a8dcac57ffff", "center": "(46.20071748402882, 6.160766374592204)", "polygon": "[(6.159798825404169, 46.202227099556545), (6.161484281133217, 46.20219447607291), (6.16245182380357, 46.20068487149997), (6.1617339238438875, 46.19920785627661), (6.160048445688001, 46.19924045832934), (6.159080889918136, 46.20075009703671)]", "points": "[(6.161956, 46.200058), (6.160994, 46.20023), (6.1594871, 46.2004779), (6.1619803, 46.2000422)]" }, "geometry": { "type": "Polygon", "coordinates": [ [ [ 6.161733923843888, 46.199207856276608 ], [ 6.160048445688001, 46.199240458329342 ], [ 6.159080889918136, 46.20075009703671 ], [ 6.159798825404169, 46.202227099556545 ], [ 6.161484281133217, 46.202194476072911 ], [ 6.16245182380357, 46.200684871499973 ], [ 6.161733923843888, 46.199207856276608 ] ] ] } },
{ "type": "Feature", "properties": { "id": "897a8dc13dbffff", "center": "(46.19667731648713, 6.138383322731019)", "polygon": "[(6.137415675697705, 46.19818713303313), (6.139101643668692, 46.19815453523267), (6.140069284202855, 46.19664472964448), (6.139350969852394, 46.19516748771914), (6.137664979439501, 46.1952000640823), (6.13669732581851, 46.196709903808504)]", "points": "[(6.13930225, 46.19760932), (6.13930225, 46.19759067)]" }, "geometry": { "type": "Polygon", "coordinates": [ [ [ 6.139350969852394, 46.195167487719139 ], [ 6.137664979439501, 46.1952000640823 ], [ 6.13669732581851, 46.196709903808504 ], [ 6.137415675697705, 46.19818713303313 ], [ 6.139101643668692, 46.198154535232668 ], [ 6.140069284202855, 46.196644729644483 ], [ 6.139350969852394, 46.195167487719139 ] ] ] } },
{ "type": "Feature", "properties": { "id": "897a8dc121bffff", "center": "(46.210069119647315, 6.139790090785612)", "polygon": "[(6.138822483565575, 46.21157876037521), (6.140508297350287, 46.211546066846005), (6.141475898080508, 46.210036437072986), (6.14075769810419, 46.20855946668125), (6.1390718618631075, 46.208592138780425), (6.138104248054224, 46.21010180270175)]", "points": "[(6.14020955, 46.20888743), (6.140244, 46.208656), (6.140173, 46.208889), (6.140374, 46.209171), (6.1404056, 46.209146)]" }, "geometry": { "type": "Polygon", "coordinates": [ [ [ 6.14075769810419, 46.208559466681251 ], [ 6.139071861863107, 46.208592138780425 ], [ 6.138104248054224, 46.21010180270175 ], [ 6.138822483565575, 46.211578760375211 ], [ 6.140508297350287, 46.211546066846005 ], [ 6.141475898080508, 46.210036437072986 ], [ 6.14075769810419, 46.208559466681251 ] ] ] } },
{ "type": "Feature", "properties": { "id": "897a8dcacd7ffff", "center": "(46.20235759828306, 6.153056647895562)", "polygon": "[(6.152089072728227, 46.20386724540414), (6.153774676799524, 46.2038346090485), (6.154742245457971, 46.20232497288261), (6.1540242231377285, 46.20084793893467), (6.152338596630839, 46.20088055385879), (6.151371014879304, 46.20239022416275)]", "points": "[(6.15281291, 46.2018622), (6.15272308, 46.2016819), (6.15286681, 46.2017192), (6.15225595, 46.20190572), (6.1524446, 46.20191816), (6.15206731, 46.20165703), (6.15349563, 46.20143942), (6.1535136, 46.20150159), (6.15350461, 46.2020052), (6.1539358, 46.20263937), (6.15355851, 46.20282589), (6.15311, 46.203026), (6.153389, 46.20126), (6.15402, 46.202663), (6.153457, 46.202789), (6.153372, 46.201313), (6.15352, 46.202869), (6.153717, 46.202553), (6.153603, 46.20155), (6.152692, 46.20171), (6.15364, 46.202446), (6.152286, 46.201912), (6.15359, 46.202091), (6.15366, 46.202648), (6.153061, 46.201443), (6.151844, 46.203289), (6.1530625, 46.2014375), (6.1538102, 46.2016212), (6.1525064, 46.2027213), (6.1541791, 46.2029882)]" }, "geometry": { "type": "Polygon", "coordinates": [ [ [ 6.154024223137728, 46.200847938934672 ], [ 6.152338596630839, 46.200880553858788 ], [ 6.151371014879304, 46.202390224162748 ], [ 6.152089072728227, 46.20386724540414 ], [ 6.153774676799524, 46.203834609048499 ], [ 6.154742245457971, 46.202324972882607 ], [ 6.154024223137728, 46.200847938934672 ] ] ] } },
{ "type": "Feature", "properties": { "id": "897a8dca127ffff", "center": "(46.20669056055972, 6.160267093328597)", "polygon": "[(6.159299557440999, 46.208200105262414), (6.160984968305221, 46.20816743892152), (6.161952497680376, 46.20665790517239), (6.161234629285938, 46.20518100362519), (6.159549195987433, 46.20521364853821), (6.158581653517177, 46.20672321642668)]", "points": "[(6.16189488, 46.20668049), (6.16186793, 46.20663075), (6.1617242, 46.20636964), (6.16028689, 46.20523194), (6.16034977, 46.20533763), (6.15909213, 46.20612097), (6.161289, 46.206142), (6.1602549, 46.205223), (6.1607702, 46.2057451), (6.1617932, 46.2065734)]" }, "geometry": { "type": "Polygon", "coordinates": [ [ [ 6.161234629285938, 46.205181003625192 ], [ 6.159549195987433, 46.205213648538212 ], [ 6.158581653517177, 46.206723216426681 ], [ 6.159299557440999, 46.208200105262414 ], [ 6.160984968305221, 46.208167438921521 ], [ 6.161952497680376, 46.206657905172392 ], [ 6.161234629285938, 46.205181003625192 ] ] ] } },
{ "type": "Feature", "properties": { "id": "897a8dcac43ffff", "center": "(46.20216185306845, 6.163169701399435)", "polygon": "[(6.162202165310415, 46.2036714344608), (6.163887556630867, 46.20363880098127), (6.164855086201018, 46.20212923054317), (6.16413723755043, 46.20065225945013), (6.16245182380357, 46.20068487149997), (6.161484281133217, 46.20219447607291)]", "points": "[(6.16211946, 46.20170055), (6.16187691, 46.20167568), (6.1623081, 46.20168811), (6.161931, 46.201679), (6.1630545, 46.2026661), (6.1618559, 46.2023361)]" }, "geometry": { "type": "Polygon", "coordinates": [ [ [ 6.16413723755043, 46.200652259450131 ], [ 6.16245182380357, 46.200684871499973 ], [ 6.161484281133217, 46.202194476072911 ], [ 6.162202165310415, 46.203671434460801 ], [ 6.163887556630867, 46.203638800981267 ], [ 6.164855086201018, 46.202129230543171 ], [ 6.16413723755043, 46.200652259450131 ] ] ] } },
{ "type": "Feature", "properties": { "id": "897a8dc124fffff", "center": "(46.21141529753134, 6.147251198104818)", "polygon": "[(6.146283623440957, 46.21292487124754), (6.147969266520486, 46.2128921691655), (6.148936834688346, 46.21138260640315), (6.148218772859088, 46.20990571157615), (6.146533107328195, 46.209938392230285), (6.145565526077433, 46.21144798913972)]", "points": "[(6.14837523, 46.21053481), (6.14830337, 46.21019291), (6.1466122, 46.2111603), (6.1472369, 46.2116452), (6.1470947, 46.210525), (6.148367, 46.2112231), (6.1483385, 46.2117783), (6.1472328, 46.2100823), (6.1477451, 46.2114083)]" }, "geometry": { "type": "Polygon", "coordinates": [ [ [ 6.148218772859088, 46.209905711576148 ], [ 6.146533107328195, 46.209938392230285 ], [ 6.145565526077433, 46.211447989139721 ], [ 6.146283623440957, 46.212924871247537 ], [ 6.147969266520486, 46.212892169165499 ], [ 6.148936834688346, 46.211382606403149 ], [ 6.148218772859088, 46.209905711576148 ] ] ] } },
{ "type": "Feature", "properties": { "id": "897a8dcac13ffff", "center": "(46.197828583563656, 6.155959373836157)", "polygon": "[(6.15499179845212, 46.19933826736088), (6.156677382990314, 46.19930566387146), (6.157644951859033, 46.197795991030105), (6.156926949287237, 46.196318887544955), (6.155241342321332, 46.196351469601034), (6.154273760354442, 46.19786117657598)]", "points": "[(6.15551684, 46.19852957), (6.15543599, 46.19846117), (6.156351, 46.198811), (6.155174, 46.198158), (6.156489, 46.199039), (6.1555378, 46.1990404)]" }, "geometry": { "type": "Polygon", "coordinates": [ [ [ 6.156926949287237, 46.196318887544955 ], [ 6.155241342321332, 46.196351469601034 ], [ 6.154273760354442, 46.197861176575977 ], [ 6.15499179845212, 46.199338267360879 ], [ 6.156677382990314, 46.199305663871463 ], [ 6.157644951859033, 46.197795991030105 ], [ 6.156926949287237, 46.196318887544955 ] ] ] } },
{ "type": "Feature", "properties": { "id": "897a8dc135bffff", "center": "(46.195037187051916, 6.146094577062467)", "polygon": "[(6.145126955956253, 46.1965469719887), (6.146812775647329, 46.1965143870608), (6.1477803902455985, 46.19500461308142), (6.1470621982455524, 46.193527389895976), (6.145376356121309, 46.1935599533872), (6.144408728429776, 46.195069761500925)]", "points": "[(6.14720742, 46.19552007), (6.1472164, 46.19557603), (6.147214, 46.195595), (6.1463225, 46.1957388)]" }, "geometry": { "type": "Polygon", "coordinates": [ [ [ 6.147062198245552, 46.193527389895976 ], [ 6.145376356121309, 46.193559953387201 ], [ 6.144408728429776, 46.195069761500925 ], [ 6.145126955956253, 46.196546971988703 ], [ 6.146812775647329, 46.196514387060802 ], [ 6.147780390245599, 46.195004613081423 ], [ 6.147062198245552, 46.193527389895976 ] ] ] } },
{ "type": "Feature", "properties": { "id": "897a8dc134bffff", "center": "(46.19349482688311, 6.148748004918582)", "polygon": "[(6.1477803902455985, 46.19500461308142), (6.149466167977362, 46.19497203958943), (6.1504337761385806, 46.193462264348604), (6.149715619663713, 46.19198502846781), (6.148029819502928, 46.192017580522815), (6.1470621982455524, 46.193527389895976)]", "points": "[(6.14901304, 46.19459978), (6.14945321, 46.19473658), (6.14893219, 46.19465574), (6.14821353, 46.19400904), (6.14880642, 46.19427643), (6.148684, 46.193684), (6.148187, 46.194778), (6.149534, 46.194775), (6.1487596, 46.1948567), (6.1484971, 46.1941134)]" }, "geometry": { "type": "Polygon", "coordinates": [ [ [ 6.149715619663713, 46.191985028467812 ], [ 6.148029819502928, 46.192017580522815 ], [ 6.147062198245552, 46.193527389895976 ], [ 6.147780390245599, 46.195004613081423 ], [ 6.149466167977362, 46.19497203958943 ], [ 6.150433776138581, 46.193462264348604 ], [ 6.149715619663713, 46.191985028467812 ] ] ] } },
{ "type": "Feature", "properties": { "id": "897a8dcac47ffff", "center": "(46.19917525470275, 6.163419366535405)", "polygon": "[(6.16245182380357, 46.20068487149997), (6.16413723755043, 46.20065225945013), (6.165104773760761, 46.199142653607765), (6.164386909326165, 46.197665625683236), (6.162701473156634, 46.197698216301866), (6.1617339238438875, 46.19920785627661)]", "points": "[(6.162303, 46.199623), (6.162488, 46.200039), (6.1624014, 46.199845)]" }, "geometry": { "type": "Polygon", "coordinates": [ [ [ 6.164386909326165, 46.197665625683236 ], [ 6.162701473156634, 46.197698216301866 ], [ 6.161733923843888, 46.199207856276608 ], [ 6.16245182380357, 46.200684871499973 ], [ 6.16413723755043, 46.200652259450131 ], [ 6.165104773760761, 46.199142653607765 ], [ 6.164386909326165, 46.197665625683236 ] ] ] } },
{ "type": "Feature", "properties": { "id": "897a8dcac87ffff", "center": "(46.19493946657595, 6.151151910255976)", "polygon": "[(6.150184308678625, 46.196449218640986), (6.151870022015233, 46.196416635149035), (6.152837617079627, 46.19490689404094), (6.152119511903758, 46.193429702292434), (6.1504337761385806, 46.193462264348604), (6.149466167977362, 46.19497203958943)]", "points": "[(6.15072882, 46.19570661), (6.15076475, 46.19552629), (6.15039644, 46.1963906), (6.15116001, 46.19505993), (6.150733, 46.195354), (6.150712, 46.195374), (6.1516402, 46.1949789), (6.1505205, 46.196348), (6.152047, 46.1956787)]" }, "geometry": { "type": "Polygon", "coordinates": [ [ [ 6.152119511903758, 46.193429702292434 ], [ 6.150433776138581, 46.193462264348604 ], [ 6.149466167977362, 46.19497203958943 ], [ 6.150184308678625, 46.196449218640986 ], [ 6.151870022015233, 46.196416635149035 ], [ 6.152837617079627, 46.19490689404094 ], [ 6.152119511903758, 46.193429702292434 ] ] ] } },
{ "type": "Feature", "properties": { "id": "897a8dc122fffff", "center": "(46.1980241488193, 6.145845161126405)", "polygon": "[(6.144877546685397, 46.199533898354964), (6.146563343939603, 46.1995012919919), (6.147530951875273, 46.19799155341303), (6.146812775647329, 46.1965143870608), (6.145126955956253, 46.1965469719887), (6.144159334929511, 46.19805674470439)]", "points": "[(6.14619233, 46.19672016), (6.14615639, 46.19669529), (6.145571, 46.197765), (6.146846, 46.196896), (6.144725, 46.198269), (6.145861, 46.197586), (6.1452873, 46.1969609), (6.1466746, 46.1965564), (6.1462508, 46.1974452), (6.1471238, 46.1979739)]" }, "geometry": { "type": "Polygon", "coordinates": [ [ [ 6.146812775647329, 46.196514387060802 ], [ 6.145126955956253, 46.196546971988703 ], [ 6.144159334929511, 46.198056744704388 ], [ 6.144877546685397, 46.199533898354964 ], [ 6.146563343939603, 46.199501291991901 ], [ 6.147530951875273, 46.197991553413033 ], [ 6.146812775647329, 46.196514387060802 ] ] ] } },
{ "type": "Feature", "properties": { "id": "897a8dcac17ffff", "center": "(46.194841750406326, 6.156208924354826)", "polygon": "[(6.155241342321332, 46.196351469601034), (6.156926949287237, 46.196318887544955), (6.157894524802769, 46.19480917930671), (6.1571765064523, 46.1933320189938), (6.155490877062415, 46.193364579615036), (6.154523288446501, 46.1948743219844)]", "points": "[(6.15616363, 46.19601752), (6.15593006, 46.19583098), (6.15534616, 46.19630355), (6.15633431, 46.1963222), (6.15633431, 46.19575636), (6.15566, 46.196194), (6.1555544, 46.1955643), (6.1560258, 46.194587), (6.1560486, 46.195166)]" }, "geometry": { "type": "Polygon", "coordinates": [ [ [ 6.1571765064523, 46.1933320189938 ], [ 6.155490877062415, 46.193364579615036 ], [ 6.154523288446501, 46.1948743219844 ], [ 6.155241342321332, 46.196351469601034 ], [ 6.156926949287237, 46.196318887544955 ], [ 6.157894524802769, 46.194809179306709 ], [ 6.1571765064523, 46.1933320189938 ] ] ] } },
{ "type": "Feature", "properties": { "id": "897a8dc1223ffff", "center": "(46.19956650519702, 6.143191713984848)", "polygon": "[(6.142224093124837, 46.20107625346462), (6.143909932326913, 46.201043635665854), (6.144877546685397, 46.199533898354964), (6.144159334929511, 46.19805674470439), (6.142473473286382, 46.1980893410683), (6.141505845839731, 46.19959911251804)]", "points": "[(6.14285958, 46.19808188), (6.14304822, 46.1980881), (6.14306619, 46.1980881), (6.14385671, 46.20099176), (6.14329975, 46.2006871), (6.142754, 46.198437), (6.143059, 46.198524), (6.143676, 46.198368), (6.142996, 46.199913), (6.143872, 46.198837), (6.143776, 46.198475), (6.142229, 46.198738), (6.142493, 46.200184), (6.142787, 46.198124), (6.1436, 46.201), (6.143353, 46.200901), (6.1429661, 46.1996601), (6.1441602, 46.1987529), (6.1429667, 46.200731)]" }, "geometry": { "type": "Polygon", "coordinates": [ [ [ 6.144159334929511, 46.198056744704388 ], [ 6.142473473286382, 46.198089341068297 ], [ 6.141505845839731, 46.199599112518037 ], [ 6.142224093124837, 46.20107625346462 ], [ 6.143909932326913, 46.201043635665854 ], [ 6.144877546685397, 46.199533898354964 ], [ 6.144159334929511, 46.198056744704388 ] ] ] } },
{ "type": "Feature", "properties": { "id": "897a8dc1257ffff", "center": "(46.21151337379703, 6.1421940756983755)", "polygon": "[(6.141226481556483, 46.2130229803757), (6.142912230957146, 46.21299027685262), (6.143879818608028, 46.21148068122828), (6.1431616699371006, 46.2100037549787), (6.141475898080508, 46.210036437072986), (6.140508297350287, 46.211546066846005)]", "points": "[(6.14283263, 46.21009966), (6.14324585, 46.21046022)]" }, "geometry": { "type": "Polygon", "coordinates": [ [ [ 6.143161669937101, 46.2100037549787 ], [ 6.141475898080508, 46.210036437072986 ], [ 6.140508297350287, 46.211546066846005 ], [ 6.141226481556483, 46.213022980375698 ], [ 6.142912230957146, 46.212990276852622 ], [ 6.143879818608028, 46.211480681228281 ], [ 6.143161669937101, 46.2100037549787 ] ] ] } },
{ "type": "Feature", "properties": { "id": "897a8dcac1bffff", "center": "(46.19927306086096, 6.1583629320695445)", "polygon": "[(6.157395369783171, 46.20078271052363), (6.159080889918136, 46.20075009703671), (6.160048445688001, 46.19924045832934), (6.15933049442126, 46.19776339897529), (6.157644951859033, 46.197795991030105), (6.156677382990314, 46.19930566387146)]", "points": "[(6.15730449, 46.19852335), (6.15734042, 46.19860418), (6.15725957, 46.19846739), (6.1583106, 46.19838034), (6.15864298, 46.19816271), (6.15854416, 46.2006187), (6.15879569, 46.20054409), (6.15822077, 46.20069953), (6.157225, 46.198498), (6.157975, 46.200764)]" }, "geometry": { "type": "Polygon", "coordinates": [ [ [ 6.15933049442126, 46.19776339897529 ], [ 6.157644951859033, 46.197795991030105 ], [ 6.156677382990314, 46.199305663871463 ], [ 6.157395369783171, 46.200782710523633 ], [ 6.159080889918136, 46.20075009703671 ], [ 6.160048445688001, 46.199240458329342 ], [ 6.15933049442126, 46.19776339897529 ] ] ] } },
{ "type": "Feature", "properties": { "id": "897a8dc1227ffff", "center": "(46.196579557395275, 6.143441100817268)", "polygon": "[(6.142473473286382, 46.1980893410683), (6.144159334929511, 46.19805674470439), (6.145126955956253, 46.1965469719887), (6.144408728429776, 46.195069761500925), (6.142722844349333, 46.19510233642844), (6.141755210232206, 46.19661214328053)]", "points": "[(6.14281466, 46.19803836), (6.14296737, 46.19764663), (6.14356026, 46.19768394), (6.14302127, 46.19718651), (6.142965, 46.197704), (6.1432303, 46.1965365), (6.1431529, 46.1972413), (6.1442388, 46.1966174)]" }, "geometry": { "type": "Polygon", "coordinates": [ [ [ 6.144408728429776, 46.195069761500925 ], [ 6.142722844349333, 46.195102336428441 ], [ 6.141755210232206, 46.196612143280532 ], [ 6.142473473286382, 46.198089341068297 ], [ 6.144159334929511, 46.198056744704388 ], [ 6.145126955956253, 46.196546971988703 ], [ 6.144408728429776, 46.195069761500925 ] ] ] } },
{ "type": "Feature", "properties": { "id": "897a8dc1353ffff", "center": "(46.19359251735677, 6.143690478547634)", "polygon": "[(6.142722844349333, 46.19510233642844), (6.144408728429776, 46.195069761500925), (6.145376356121309, 46.1935599533872), (6.14465811282451, 46.19208268606743), (6.142972206310469, 46.19211523955706), (6.142004565526339, 46.193625081804726)]", "points": "[(6.14342551, 46.19489825), (6.14342551, 46.19500396), (6.14301229, 46.19502262)]" }, "geometry": { "type": "Polygon", "coordinates": [ [ [ 6.14465811282451, 46.19208268606743 ], [ 6.142972206310469, 46.192115239557062 ], [ 6.142004565526339, 46.193625081804726 ], [ 6.142722844349333, 46.195102336428441 ], [ 6.144408728429776, 46.195069761500925 ], [ 6.145376356121309, 46.193559953387201 ], [ 6.14465811282451, 46.19208268606743 ] ] ] } },
{ "type": "Feature", "properties": { "id": "897a8dcac53ffff", "center": "(46.20370406841964, 6.160516738526988)", "polygon": "[(6.159549195987433, 46.20521364853821), (6.161234629285938, 46.20518100362519), (6.162202165310415, 46.2036714344608), (6.161484281133217, 46.20219447607291), (6.159798825404169, 46.202227099556545), (6.158831276282372, 46.20373670285783)]", "points": "[(6.16025096, 46.20512625), (6.1607241, 46.2023981), (6.1617559, 46.2041465), (6.1594761, 46.2027891), (6.1608192, 46.2036159), (6.1618123, 46.2029819), (6.1612906, 46.2027167), (6.1602472, 46.2026229)]" }, "geometry": { "type": "Polygon", "coordinates": [ [ [ 6.161484281133217, 46.202194476072911 ], [ 6.159798825404169, 46.202227099556545 ], [ 6.158831276282372, 46.203736702857832 ], [ 6.159549195987433, 46.205213648538212 ], [ 6.161234629285938, 46.205181003625192 ], [ 6.162202165310415, 46.203671434460801 ], [ 6.161484281133217, 46.202194476072911 ] ] ] } },
{ "type": "Feature", "properties": { "id": "897a8dc122bffff", "center": "(46.2010110183462, 6.145595736084297)", "polygon": "[(6.144628128311967, 46.202520732474014), (6.146313903125548, 46.202488104677286), (6.147281504395185, 46.20097840150569), (6.146563343939603, 46.1995012919919), (6.144877546685397, 46.199533898354964), (6.143909932326913, 46.201043635665854)]", "points": "[(6.14656063, 46.20105393), (6.1441801, 46.20119693), (6.14464722, 46.20096689), (6.14424298, 46.20126533), (6.1466864, 46.20009021), (6.14662352, 46.20109124), (6.146719, 46.200092), (6.146706, 46.200077)]" }, "geometry": { "type": "Polygon", "coordinates": [ [ [ 6.146563343939603, 46.199501291991901 ], [ 6.144877546685397, 46.199533898354964 ], [ 6.143909932326913, 46.201043635665854 ], [ 6.144628128311967, 46.202520732474014 ], [ 6.146313903125548, 46.202488104677286 ], [ 6.147281504395185, 46.200978401505687 ], [ 6.146563343939603, 46.199501291991901 ] ] ] } },
{ "type": "Feature", "properties": { "id": "897a8dcac83ffff", "center": "(46.19792636403692, 6.1509024270217285)", "polygon": "[(6.149934832101706, 46.19943608070266), (6.151620523006015, 46.19940347577646), (6.152588111415705, 46.19789377006707), (6.151870022015233, 46.196416635149035), (6.150184308678625, 46.196449218640986), (6.149216707174321, 46.19795895848558)]", "points": "[(6.14956999, 46.19836168), (6.15069289, 46.19940005), (6.15171696, 46.19765907), (6.15169002, 46.1976342), (6.151364, 46.196495), (6.1502622, 46.198398), (6.1512387, 46.1964928), (6.151061, 46.1978841), (6.1512172, 46.1971742)]" }, "geometry": { "type": "Polygon", "coordinates": [ [ [ 6.151870022015233, 46.196416635149035 ], [ 6.150184308678625, 46.196449218640986 ], [ 6.149216707174321, 46.197958958485579 ], [ 6.149934832101706, 46.199436080702661 ], [ 6.151620523006015, 46.199403475776457 ], [ 6.152588111415705, 46.197893770067068 ], [ 6.151870022015233, 46.196416635149035 ] ] ] } }
]
}
